{
  "type": "FeatureCollection",
  "features": [
    {
      "type": "Feature",
      "geometry": {
        "type": "Polygon",
        "coordinates": [
          [
            [
              113.3175354,
              23.1203287
            ],
            [
              113.3175512,
              23.1202892
            ],
            [
              113.3175952,
              23.1202367
            ],
            [
              113.3177565,
              23.1200712
            ],
            [
              113.3179456,
              23.1199586
            ],
            [
              113.3180171,
              23.1199851
            ],
            [
              113.318094,
              23.1201275
            ],
            [
              113.3181509,
              23.1202652
            ],
            [
              113.3181692,
              23.1203291
            ],
            [
              113.3181775,
              23.1203983
            ],
            [
              113.3181594,
              23.1205158
            ],
            [
              113.3180907,
              23.1205455
            ],
            [
              113.3180049,
              23.1205303
            ],
            [
              113.3179816,
              23.1205223
            ],
            [
              113.3177762,
              23.1204523
            ],
            [
              113.3176875,
              23.1204147
            ],
            [
              113.3175838,
              23.1203749
            ],
            [
              113.317541,
              23.1203526
            ],
            [
              113.3175354,
              23.1203287
            ]
          ]
        ]
      },
      "properties": {
        "id": "w184738716",
        "addr:city": "广州市",
        "addr:country": "CN",
        "addr:province": "广东省",
        "alt_name": "广州西塔",
        "alt_name:en": "Guangzhou West Tower",
        "building": "commercial",
        "building:colour": "#000000",
        "building:levels": "103",
        "building:material": "glass",
        "check_date": "2021-03-10",
        "height": "440.2",
        "name": "广州国际金融中心(广州西塔)",
        "name:de": "Internationales Finanzzentrum Guangzhou",
        "name:en": "Guangzhou International Finance Center",
        "name:es": "Centro Financiero Internacional de Cantón",
        "name:ja": "広州国際金融センター",
        "name:ja-Hira": "こうしゅうこくさいきんゆうせんたー",
        "name:ko": "광저우 국제금융센터",
        "name:pt": "Centro Financeiro Internacional de Cantão",
        "name:ru": "Международный финансовый центр",
        "name:th": "กว่างโจวอินเตอร์เนชัลนัลไฟแนนซ์เซ็นเตอร์",
        "name:uk": "Західна вежа Гуанчжоу",
        "name:vi": "Trung tâm Tài chính Quốc tế Quảng Châu",
        "name:yue": "廣州國際金融中心",
        "name:zh": "广州国际金融中心(广州西塔)",
        "name:zh-Latn-pinyin": "Guǎngzhōu Guójì Jīnróng Zhōngxīn",
        "short_name": "IFC",
        "start_date": "2010",
        "wikidata": "Q1043438",
        "wikimedia_commons": "Category:Guangzhou West Tower",
        "wikipedia": "zh:广州国际金融中心",
        "wikipedia:en": "Guangzhou International Finance Center"
      }
    },
    {
      "type": "Feature",
      "geometry": {
        "type": "Polygon",
        "coordinates": [
          [
            [
              113.3147163,
              23.1204978
            ],
            [
              113.3154522,
              23.1204877
            ],
            [
              113.3154568,
              23.1207761
            ],
            [
              113.3147209,
              23.1207862
            ],
            [
              113.3147163,
              23.1204978
            ]
          ]
        ]
      },
      "properties": {
        "id": "w299684381",
        "amenity": "public_building",
        "building": "office",
        "height": "40",
        "name": "广州市政务服务中心",
        "name:zh": "广州市政务服务中心",
        "wheelchair": "yes"
      }
    },
    {
      "type": "Feature",
      "geometry": {
        "type": "Polygon",
        "coordinates": [
          [
            [
              113.3181171,
              23.123714
            ],
            [
              113.317704,
              23.1236644
            ],
            [
              113.317749,
              23.1232243
            ],
            [
              113.3177707,
              23.1231099
            ],
            [
              113.3177848,
              23.123023
            ],
            [
              113.3178473,
              23.122569
            ],
            [
              113.3182622,
              23.1226205
            ],
            [
              113.3183748,
              23.1226254
            ],
            [
              113.3182657,
              23.1229772
            ],
            [
              113.3182336,
              23.1231833
            ],
            [
              113.3182048,
              23.1234142
            ],
            [
              113.3182086,
              23.1236804
            ],
            [
              113.3181172,
              23.1236689
            ],
            [
              113.3181171,
              23.123714
            ]
          ]
        ]
      },
      "properties": {
        "id": "w299687659",
        "building": "commercial",
        "name": "高德置地广场（夏）",
        "name:en": "GT Land Plaza(Summer Plaza)",
        "name:zh": "高德置地广场（夏）",
        "website": "http://www.gtlandplaza.com/"
      }
    },
    {
      "type": "Feature",
      "geometry": {
        "type": "Polygon",
        "coordinates": [
          [
            [
              113.3164825,
              23.1226091
            ],
            [
              113.3165621,
              23.1226457
            ],
            [
              113.3166494,
              23.1226562
            ],
            [
              113.3167456,
              23.1226383
            ],
            [
              113.3168409,
              23.1225934
            ],
            [
              113.3168827,
              23.1225567
            ],
            [
              113.3168978,
              23.1225411
            ],
            [
              113.3169452,
              23.1224905
            ],
            [
              113.3169737,
              23.1224312
            ],
            [
              113.3169842,
              23.122387
            ],
            [
              113.3169868,
              23.1223646
            ],
            [
              113.3170316,
              23.1223694
            ],
            [
              113.3171231,
              23.1223867
            ],
            [
              113.3171923,
              23.1223884
            ],
            [
              113.3171892,
              23.1224297
            ],
            [
              113.3172289,
              23.1224362
            ],
            [
              113.3172565,
              23.1224407
            ],
            [
              113.3172624,
              23.1224213
            ],
            [
              113.3174518,
              23.1224425
            ],
            [
              113.3174217,
              23.122534
            ],
            [
              113.3174788,
              23.1225365
            ],
            [
              113.3173928,
              23.1228573
            ],
            [
              113.3173658,
              23.122973
            ],
            [
              113.3173333,
              23.1230794
            ],
            [
              113.317329,
              23.1230952
            ],
            [
              113.3173424,
              23.1231183
            ],
            [
              113.3173491,
              23.1231553
            ],
            [
              113.3173377,
              23.123188
            ],
            [
              113.3173088,
              23.1232133
            ],
            [
              113.3172753,
              23.1232305
            ],
            [
              113.3172351,
              23.1232342
            ],
            [
              113.3172227,
              23.1232351
            ],
            [
              113.3171727,
              23.1232385
            ],
            [
              113.317045,
              23.1232452
            ],
            [
              113.3166647,
              23.1232694
            ],
            [
              113.3164193,
              23.1232851
            ],
            [
              113.3163666,
              23.1232884
            ],
            [
              113.3163249,
              23.1232911
            ],
            [
              113.3162805,
              23.1232011
            ],
            [
              113.316251,
              23.1230753
            ],
            [
              113.316251,
              23.122947
            ],
            [
              113.3162778,
              23.1227472
            ],
            [
              113.3163301,
              23.1226288
            ],
            [
              113.3163904,
              23.1225449
            ],
            [
              113.3164825,
              23.1226091
            ]
          ]
        ]
      },
      "properties": {
        "id": "w299812757",
        "building": "commercial",
        "building:levels": "5",
        "building:levels:underground": "2",
        "layer": "-1",
        "name": "高德置地广场（春）",
        "name:en": "GT Land Plaza(Spring Plaza)",
        "name:zh": "高德置地广场（春）",
        "shop": "mall",
        "website": "http://www.gtlandplaza.com/",
        "wheelchair": "limited"
      }
    },
    {
      "type": "Feature",
      "geometry": {
        "type": "Polygon",
        "coordinates": [
          [
            [
              113.3171021,
              23.1214874
            ],
            [
              113.3171945,
              23.1214892
            ],
            [
              113.3176491,
              23.1214608
            ],
            [
              113.3177636,
              23.1210848
            ],
            [
              113.3176678,
              23.1209131
            ],
            [
              113.3175705,
              23.1207388
            ],
            [
              113.31747,
              23.1205468
            ],
            [
              113.3174651,
              23.1203971
            ],
            [
              113.3174525,
              23.120014
            ],
            [
              113.3170402,
              23.1200264
            ],
            [
              113.3171021,
              23.1214874
            ]
          ]
        ]
      },
      "properties": {
        "id": "w312888407",
        "building": "retail",
        "building:levels": "5",
        "name": "广州友谊商店(国金店)",
        "shop": "mall",
        "wheelchair": "yes"
      }
    },
    {
      "type": "Feature",
      "geometry": {
        "type": "Polygon",
        "coordinates": [
          [
            [
              113.3162215,
              23.124647
            ],
            [
              113.3162064,
              23.1235897
            ],
            [
              113.3170458,
              23.1235244
            ],
            [
              113.3171585,
              23.1235216
            ],
            [
              113.3171642,
              23.1236013
            ],
            [
              113.3173207,
              23.1235905
            ],
            [
              113.3173103,
              23.1244845
            ],
            [
              113.3172285,
              23.1245021
            ],
            [
              113.3172332,
              23.1245683
            ],
            [
              113.3162215,
              23.124647
            ]
          ]
        ]
      },
      "properties": {
        "id": "w312888482",
        "building": "yes",
        "name": "广东全球通大厦",
        "name:zh": "广东全球通大厦",
        "office": "yes"
      }
    },
    {
      "type": "Feature",
      "geometry": {
        "type": "Polygon",
        "coordinates": [
          [
            [
              113.3154187,
              23.1225705
            ],
            [
              113.31446,
              23.1226465
            ],
            [
              113.3144778,
              23.1228368
            ],
            [
              113.3146408,
              23.1228233
            ],
            [
              113.3146779,
              23.1233053
            ],
            [
              113.3153135,
              23.1232561
            ],
            [
              113.3152578,
              23.1227745
            ],
            [
              113.315426,
              23.1227637
            ],
            [
              113.3154187,
              23.1225705
            ]
          ]
        ]
      },
      "properties": {
        "id": "w313905695",
        "addr:city": "广州市",
        "addr:housenumber": "83",
        "addr:postcode": "510623",
        "addr:province": "广东省",
        "addr:street": "花城大道",
        "building": "yes",
        "government": "customs",
        "height": "100",
        "name": "广州市海关",
        "office": "government",
        "website": "http://guangzhou.customs.gov.cn/",
        "wheelchair": "yes"
      }
    },
    {
      "type": "Feature",
      "geometry": {
        "type": "Polygon",
        "coordinates": [
          [
            [
              113.3134269,
              23.1249009
            ],
            [
              113.3133435,
              23.1239319
            ],
            [
              113.3136809,
              23.1239073
            ],
            [
              113.3137016,
              23.1241478
            ],
            [
              113.3141674,
              23.1241139
            ],
            [
              113.3142301,
              23.1248424
            ],
            [
              113.3134269,
              23.1249009
            ]
          ]
        ]
      },
      "properties": {
        "id": "w313905697",
        "building": "school"
      }
    },
    {
      "type": "Feature",
      "geometry": {
        "type": "Polygon",
        "coordinates": [
          [
            [
              113.3137059,
              23.1216157
            ],
            [
              113.3136772,
              23.1213368
            ],
            [
              113.3140674,
              23.1213029
            ],
            [
              113.3140961,
              23.1215817
            ],
            [
              113.3137059,
              23.1216157
            ]
          ]
        ]
      },
      "properties": {
        "id": "w313905699",
        "building": "yes"
      }
    },
    {
      "type": "Feature",
      "geometry": {
        "type": "Polygon",
        "coordinates": [
          [
            [
              113.3142168,
              23.1215712
            ],
            [
              113.3141926,
              23.12127
            ],
            [
              113.3142579,
              23.1212063
            ],
            [
              113.314477,
              23.1211891
            ],
            [
              113.314526,
              23.1217174
            ],
            [
              113.3143555,
              23.1217307
            ],
            [
              113.3142168,
              23.1215712
            ]
          ]
        ]
      },
      "properties": {
        "id": "w313905701",
        "building": "yes"
      }
    },
    {
      "type": "Feature",
      "geometry": {
        "type": "Polygon",
        "coordinates": [
          [
            [
              113.3145168,
              23.1204633
            ],
            [
              113.3140097,
              23.1204658
            ],
            [
              113.3140122,
              23.1208779
            ],
            [
              113.3145193,
              23.1208754
            ],
            [
              113.3145168,
              23.1204633
            ]
          ]
        ]
      },
      "properties": {
        "id": "w316535682",
        "building": "commercial",
        "building:levels": "22",
        "height": "70",
        "name": "保利大厦",
        "name:zh": "保利大厦"
      }
    },
    {
      "type": "Feature",
      "geometry": {
        "type": "Polygon",
        "coordinates": [
          [
            [
              113.3131847,
              23.1208489
            ],
            [
              113.3131874,
              23.120462
            ],
            [
              113.3137863,
              23.1204656
            ],
            [
              113.3137836,
              23.1208525
            ],
            [
              113.3131847,
              23.1208489
            ]
          ]
        ]
      },
      "properties": {
        "id": "w316535696",
        "addr:housenumber": "57",
        "addr:street": "华利路",
        "building": "apartments",
        "building:levels": "18",
        "height": "78",
        "name": "星辰大厦",
        "name:zh": "星辰大厦"
      }
    },
    {
      "type": "Feature",
      "geometry": {
        "type": "Polygon",
        "coordinates": [
          [
            [
              113.3133063,
              23.1217975
            ],
            [
              113.3132655,
              23.1215739
            ],
            [
              113.3132546,
              23.121372
            ],
            [
              113.3133179,
              23.1213641
            ],
            [
              113.3133444,
              23.1212998
            ],
            [
              113.3134035,
              23.1212667
            ],
            [
              113.3135645,
              23.1212523
            ],
            [
              113.3135705,
              23.1213447
            ],
            [
              113.3135885,
              23.1216239
            ],
            [
              113.3135348,
              23.1217834
            ],
            [
              113.3133063,
              23.1217975
            ]
          ]
        ]
      },
      "properties": {
        "id": "w316616553",
        "building": "yes"
      }
    },
    {
      "type": "Feature",
      "geometry": {
        "type": "Polygon",
        "coordinates": [
          [
            [
              113.3124356,
              23.1215071
            ],
            [
              113.312546,
              23.1214845
            ],
            [
              113.3126506,
              23.1215181
            ],
            [
              113.312758,
              23.1215591
            ],
            [
              113.3128146,
              23.1215904
            ],
            [
              113.3128441,
              23.1216241
            ],
            [
              113.3128755,
              23.1216599
            ],
            [
              113.3128743,
              23.1217609
            ],
            [
              113.3128225,
              23.1218098
            ],
            [
              113.3127217,
              23.1218422
            ],
            [
              113.3125922,
              23.1218577
            ],
            [
              113.3124877,
              23.1218585
            ],
            [
              113.3123736,
              23.1218261
            ],
            [
              113.3122606,
              23.1217531
            ],
            [
              113.3122498,
              23.1216555
            ],
            [
              113.3122841,
              23.1215841
            ],
            [
              113.3123419,
              23.1215496
            ],
            [
              113.3124356,
              23.1215071
            ]
          ]
        ]
      },
      "properties": {
        "id": "w316616555",
        "addr:street": "花城大道",
        "building": "commercial",
        "building:levels": "25",
        "name": "广州远洋大厦",
        "name:zh": "广州远洋大厦"
      }
    },
    {
      "type": "Feature",
      "geometry": {
        "type": "Polygon",
        "coordinates": [
          [
            [
              113.3157085,
              23.12142
            ],
            [
              113.3158762,
              23.1214171
            ],
            [
              113.315899,
              23.1225449
            ],
            [
              113.3157314,
              23.1225478
            ],
            [
              113.3157085,
              23.12142
            ]
          ]
        ]
      },
      "properties": {
        "id": "w503810995",
        "building": "yes",
        "building:levels:underground": "3",
        "layer": "-2",
        "name": "珠江新城",
        "name:en": "Zhujiang New Town",
        "name:zh": "珠江新城",
        "opening_hours": "06:09-00:01",
        "operator": "广州地铁集团有限公司",
        "ref": "3-10",
        "start_date": "2005-12-26",
        "wikidata": "Q5976431",
        "wikimedia_commons": "Category:Zhujiang New Town Station",
        "wikipedia": "zh:珠江新城站"
      }
    },
    {
      "type": "Feature",
      "geometry": {
        "type": "Polygon",
        "coordinates": [
          [
            [
              113.3163414,
              23.1219016
            ],
            [
              113.3163435,
              23.1220457
            ],
            [
              113.3152642,
              23.1220591
            ],
            [
              113.3152621,
              23.1219149
            ],
            [
              113.3163414,
              23.1219016
            ]
          ]
        ]
      },
      "properties": {
        "id": "w503814640",
        "building": "yes",
        "building:levels:underground": "3",
        "layer": "-3",
        "name": "珠江新城",
        "name:en": "Zhujiang New Town",
        "name:zh": "珠江新城",
        "opening_hours": "06:09-00:01",
        "operator": "广州地铁集团有限公司",
        "ref": "5-13",
        "start_date": "2009-12-28",
        "wikidata": "Q5976431",
        "wikimedia_commons": "Category:Zhujiang New Town Station",
        "wikipedia": "zh:珠江新城站"
      }
    },
    {
      "type": "Feature",
      "geometry": {
        "type": "Polygon",
        "coordinates": [
          [
            [
              113.3161462,
              23.1214072
            ],
            [
              113.3166048,
              23.1213902
            ],
            [
              113.3165857,
              23.1209537
            ],
            [
              113.3161271,
              23.1209706
            ],
            [
              113.3161462,
              23.1214072
            ]
          ]
        ]
      },
      "properties": {
        "id": "w513786152",
        "building": "commercial",
        "height": "296.5",
        "name": "富力盈凯广场",
        "wikidata": "Q17637389",
        "wikimedia_commons": "Category:R&F Yingkai Square",
        "wikipedia": "en:R&F Yingkai Square"
      }
    },
    {
      "type": "Feature",
      "geometry": {
        "type": "Polygon",
        "coordinates": [
          [
            [
              113.3115727,
              23.1219159
            ],
            [
              113.3115679,
              23.1215972
            ],
            [
              113.3117012,
              23.1215955
            ],
            [
              113.311931,
              23.1215926
            ],
            [
              113.3121515,
              23.1215898
            ],
            [
              113.3121563,
              23.1219085
            ],
            [
              113.3115727,
              23.1219159
            ]
          ]
        ]
      },
      "properties": {
        "id": "w519672265",
        "building": "commercial",
        "building:levels": "26",
        "name": "建滔广场",
        "name:zh": "建滔广场"
      }
    },
    {
      "type": "Feature",
      "geometry": {
        "type": "Polygon",
        "coordinates": [
          [
            [
              113.3118656,
              23.1235661
            ],
            [
              113.3118596,
              23.1234769
            ],
            [
              113.3119949,
              23.1234693
            ],
            [
              113.3119852,
              23.1233239
            ],
            [
              113.312876,
              23.1232737
            ],
            [
              113.3128917,
              23.1235082
            ],
            [
              113.3118656,
              23.1235661
            ]
          ]
        ]
      },
      "properties": {
        "id": "w543582251",
        "addr:city": "Guangzhou",
        "addr:district": "Tian He",
        "addr:housenumber": "6",
        "addr:postcode": "510600",
        "addr:street": "Huacheng road",
        "building": "commercial",
        "building:levels": "30",
        "name": "礼顿阳光大厦",
        "name:zh": "礼顿阳光大厦"
      }
    },
    {
      "type": "Feature",
      "geometry": {
        "type": "Polygon",
        "coordinates": [
          [
            [
              113.3105753,
              23.1231389
            ],
            [
              113.3105471,
              23.1227517
            ],
            [
              113.3105454,
              23.1227283
            ],
            [
              113.3115958,
              23.1226403
            ],
            [
              113.3116137,
              23.1228731
            ],
            [
              113.3114144,
              23.1230765
            ],
            [
              113.3105753,
              23.1231389
            ]
          ]
        ]
      },
      "properties": {
        "id": "w544809828",
        "building": "commercial",
        "building:colour": "brown",
        "building:levels": "7",
        "name": "南天广场",
        "name:zh": "南天广场"
      }
    },
    {
      "type": "Feature",
      "geometry": {
        "type": "Polygon",
        "coordinates": [
          [
            [
              113.3114582,
              23.1232965
            ],
            [
              113.31153,
              23.1233808
            ],
            [
              113.3115998,
              23.123423
            ],
            [
              113.3116715,
              23.1234395
            ],
            [
              113.3116894,
              23.123566
            ],
            [
              113.3106072,
              23.1236521
            ],
            [
              113.3105833,
              23.1233753
            ],
            [
              113.3114582,
              23.1232965
            ]
          ]
        ]
      },
      "properties": {
        "id": "w544809830",
        "addr:city": "Guangzhou",
        "addr:district": "Tian He",
        "addr:housenumber": "6",
        "addr:postcode": "510600",
        "addr:street": "Huacheng road",
        "building": "commercial",
        "building:levels": "30",
        "name": "礼顿阳光大厦",
        "name:zh": "礼顿阳光大厦"
      }
    },
    {
      "type": "Feature",
      "geometry": {
        "type": "Polygon",
        "coordinates": [
          [
            [
              113.3118987,
              23.122622
            ],
            [
              113.3119127,
              23.1228694
            ],
            [
              113.3128594,
              23.1227906
            ],
            [
              113.3128375,
              23.1225431
            ],
            [
              113.3118987,
              23.122622
            ]
          ]
        ]
      },
      "properties": {
        "id": "w544809831",
        "building": "commercial",
        "name": "双城国际",
        "name:zh": "双城国际"
      }
    },
    {
      "type": "Feature",
      "geometry": {
        "type": "Polygon",
        "coordinates": [
          [
            [
              113.3117012,
              23.1215955
            ],
            [
              113.3116985,
              23.1215535
            ],
            [
              113.3115957,
              23.1215535
            ],
            [
              113.311593,
              23.1214118
            ],
            [
              113.3119283,
              23.1214043
            ],
            [
              113.311931,
              23.1215926
            ],
            [
              113.3117012,
              23.1215955
            ]
          ]
        ]
      },
      "properties": {
        "id": "w544809839",
        "building": "commercial"
      }
    },
    {
      "type": "Feature",
      "geometry": {
        "type": "Polygon",
        "coordinates": [
          [
            [
              113.3110664,
              23.122
            ],
            [
              113.311445,
              23.1219966
            ],
            [
              113.3114433,
              23.1218404
            ],
            [
              113.3112986,
              23.1218417
            ],
            [
              113.3112958,
              23.1215739
            ],
            [
              113.3114601,
              23.1215724
            ],
            [
              113.3114583,
              23.1213963
            ],
            [
              113.311058,
              23.1213999
            ],
            [
              113.3110599,
              23.1215837
            ],
            [
              113.3111744,
              23.1215826
            ],
            [
              113.3111773,
              23.1218527
            ],
            [
              113.3110648,
              23.1218537
            ],
            [
              113.3110664,
              23.122
            ]
          ]
        ]
      },
      "properties": {
        "id": "w544809840",
        "building": "commercial",
        "building:levels": "3",
        "name": "凯蓝大厦",
        "name:zh": "凯蓝大厦"
      }
    },
    {
      "type": "Feature",
      "geometry": {
        "type": "Polygon",
        "coordinates": [
          [
            [
              113.3140961,
              23.1215817
            ],
            [
              113.3142168,
              23.1215712
            ],
            [
              113.3141926,
              23.12127
            ],
            [
              113.3135705,
              23.1213447
            ],
            [
              113.3135885,
              23.1216239
            ],
            [
              113.3137059,
              23.1216157
            ],
            [
              113.3140961,
              23.1215817
            ]
          ]
        ]
      },
      "properties": {
        "id": "w586026849",
        "building": "yes"
      }
    },
    {
      "type": "Feature",
      "geometry": {
        "type": "Polygon",
        "coordinates": [
          [
            [
              113.3164803,
              23.1225065
            ],
            [
              113.3165232,
              23.1225361
            ],
            [
              113.3165929,
              23.1225534
            ],
            [
              113.3166761,
              23.1225583
            ],
            [
              113.3167699,
              23.1225435
            ],
            [
              113.316727,
              23.1224769
            ],
            [
              113.31666,
              23.1224177
            ],
            [
              113.3166117,
              23.122393
            ],
            [
              113.3165768,
              23.122393
            ],
            [
              113.3165339,
              23.1224004
            ],
            [
              113.316499,
              23.1224152
            ],
            [
              113.3164669,
              23.122435
            ],
            [
              113.3164615,
              23.1224646
            ],
            [
              113.3164803,
              23.1225065
            ]
          ]
        ]
      },
      "properties": {
        "id": "w684901406",
        "building": "roof",
        "layer": "1"
      }
    },
    {
      "type": "Feature",
      "geometry": {
        "type": "Polygon",
        "coordinates": [
          [
            [
              113.313256,
              23.1227996
            ],
            [
              113.3132963,
              23.1227971
            ],
            [
              113.3135046,
              23.1227841
            ],
            [
              113.313551,
              23.1227813
            ],
            [
              113.3137334,
              23.1225962
            ],
            [
              113.3137217,
              23.1224853
            ],
            [
              113.3132423,
              23.122523
            ],
            [
              113.313256,
              23.1227996
            ]
          ]
        ]
      },
      "properties": {
        "id": "w717926111",
        "building": "apartments",
        "building:levels": "32",
        "name": "C"
      }
    },
    {
      "type": "Feature",
      "geometry": {
        "type": "Polygon",
        "coordinates": [
          [
            [
              113.3138498,
              23.1224752
            ],
            [
              113.3138568,
              23.1225864
            ],
            [
              113.3139963,
              23.1227245
            ],
            [
              113.3141901,
              23.1227091
            ],
            [
              113.3142929,
              23.122701
            ],
            [
              113.3143248,
              23.1226984
            ],
            [
              113.3143115,
              23.1224389
            ],
            [
              113.3138498,
              23.1224752
            ]
          ]
        ]
      },
      "properties": {
        "id": "w717926112",
        "building": "apartments",
        "building:levels": "32",
        "name": "D"
      }
    },
    {
      "type": "Feature",
      "geometry": {
        "type": "Polygon",
        "coordinates": [
          [
            [
              113.3138719,
              23.1234254
            ],
            [
              113.3138635,
              23.1233141
            ],
            [
              113.3139507,
              23.1231735
            ],
            [
              113.3140352,
              23.1231291
            ],
            [
              113.3142228,
              23.1231148
            ],
            [
              113.3143092,
              23.1231083
            ],
            [
              113.3143457,
              23.1231055
            ],
            [
              113.3143603,
              23.1233904
            ],
            [
              113.3138719,
              23.1234254
            ]
          ]
        ]
      },
      "properties": {
        "id": "w717926113",
        "building": "apartments",
        "building:levels": "32",
        "name": "B"
      }
    },
    {
      "type": "Feature",
      "geometry": {
        "type": "Polygon",
        "coordinates": [
          [
            [
              113.3137564,
              23.1234336
            ],
            [
              113.3137549,
              23.1233301
            ],
            [
              113.3135363,
              23.1231722
            ],
            [
              113.313522,
              23.1231737
            ],
            [
              113.3133151,
              23.1231953
            ],
            [
              113.3132758,
              23.1231994
            ],
            [
              113.3132891,
              23.1234671
            ],
            [
              113.3137564,
              23.1234336
            ]
          ]
        ]
      },
      "properties": {
        "id": "w717926114",
        "building": "apartments",
        "building:levels": "32",
        "name": "A"
      }
    },
    {
      "type": "Feature",
      "geometry": {
        "type": "Polygon",
        "coordinates": [
          [
            [
              113.3133151,
              23.1231953
            ],
            [
              113.3132963,
              23.1227971
            ],
            [
              113.3135046,
              23.1227841
            ],
            [
              113.313522,
              23.1231737
            ],
            [
              113.3133151,
              23.1231953
            ]
          ]
        ]
      },
      "properties": {
        "id": "w717926115",
        "building": "apartments",
        "building:levels": "32"
      }
    },
    {
      "type": "Feature",
      "geometry": {
        "type": "Polygon",
        "coordinates": [
          [
            [
              113.3142228,
              23.1231148
            ],
            [
              113.3141703,
              23.1230044
            ],
            [
              113.3141611,
              23.1228798
            ],
            [
              113.3141901,
              23.1227091
            ],
            [
              113.3142929,
              23.122701
            ],
            [
              113.3143244,
              23.1228755
            ],
            [
              113.3143279,
              23.1229986
            ],
            [
              113.3143092,
              23.1231083
            ],
            [
              113.3142228,
              23.1231148
            ]
          ]
        ]
      },
      "properties": {
        "id": "w717926116",
        "building": "apartments",
        "building:levels": "32"
      }
    },
    {
      "type": "Feature",
      "geometry": {
        "type": "Polygon",
        "coordinates": [
          [
            [
              113.3176678,
              23.1209131
            ],
            [
              113.3179816,
              23.1205223
            ],
            [
              113.317541,
              23.1203526
            ],
            [
              113.3174651,
              23.1203971
            ],
            [
              113.31747,
              23.1205468
            ],
            [
              113.3176678,
              23.1209131
            ]
          ]
        ]
      },
      "properties": {
        "id": "w717941983",
        "building": "roof",
        "layer": "1"
      }
    },
    {
      "type": "Feature",
      "geometry": {
        "type": "Polygon",
        "coordinates": [
          [
            [
              113.3114876,
              23.1243462
            ],
            [
              113.3117395,
              23.124119
            ],
            [
              113.3115429,
              23.1239345
            ],
            [
              113.3112909,
              23.1241617
            ],
            [
              113.3114876,
              23.1243462
            ]
          ]
        ]
      },
      "properties": {
        "id": "w737870905",
        "building": "residential",
        "building:levels": "41",
        "name": "4栋"
      }
    },
    {
      "type": "Feature",
      "geometry": {
        "type": "Polygon",
        "coordinates": [
          [
            [
              113.3110884,
              23.1219793
            ],
            [
              113.3114225,
              23.1219763
            ],
            [
              113.3114213,
              23.1218611
            ],
            [
              113.3112766,
              23.1218624
            ],
            [
              113.3112733,
              23.1215536
            ],
            [
              113.3114376,
              23.1215521
            ],
            [
              113.3114363,
              23.121417
            ],
            [
              113.3110805,
              23.1214202
            ],
            [
              113.3110819,
              23.121563
            ],
            [
              113.3111964,
              23.1215619
            ],
            [
              113.3111998,
              23.121873
            ],
            [
              113.3110873,
              23.121874
            ],
            [
              113.3110884,
              23.1219793
            ]
          ]
        ]
      },
      "properties": {
        "id": "w941838733",
        "building": "apartments",
        "building:levels": "24",
        "min_level": "3",
        "name": "凯蓝大厦"
      }
    },
    {
      "type": "Feature",
      "geometry": {
        "type": "Polygon",
        "coordinates": [
          [
            [
              113.3124356,
              23.1215071
            ],
            [
              113.312473,
              23.1214364
            ],
            [
              113.3124733,
              23.1212694
            ],
            [
              113.3125052,
              23.1211947
            ],
            [
              113.3126396,
              23.1212003
            ],
            [
              113.3127788,
              23.1212933
            ],
            [
              113.3128485,
              23.1214117
            ],
            [
              113.3128646,
              23.1215647
            ],
            [
              113.3128441,
              23.1216241
            ],
            [
              113.312758,
              23.1215591
            ],
            [
              113.3126506,
              23.1215181
            ],
            [
              113.312546,
              23.1214845
            ],
            [
              113.3124356,
              23.1215071
            ]
          ]
        ]
      },
      "properties": {
        "id": "w941839293",
        "addr:street": "花城大道",
        "building": "commercial",
        "building:levels": "4",
        "name": "广州远洋大厦",
        "name:zh": "广州远洋大厦"
      }
    },
    {
      "type": "Feature",
      "geometry": {
        "type": "Polygon",
        "coordinates": [
          [
            [
              113.3122895,
              23.1209108
            ],
            [
              113.3124849,
              23.1209043
            ],
            [
              113.312477,
              23.1207051
            ],
            [
              113.3126626,
              23.1206989
            ],
            [
              113.3126709,
              23.1209086
            ],
            [
              113.3128533,
              23.1209025
            ],
            [
              113.3128358,
              23.1204573
            ],
            [
              113.3122724,
              23.1204761
            ],
            [
              113.3122895,
              23.1209108
            ]
          ]
        ]
      },
      "properties": {
        "id": "w941839474",
        "building": "apartments",
        "building:levels": "31",
        "name": "广弘天琪"
      }
    },
    {
      "type": "Feature",
      "geometry": {
        "type": "Polygon",
        "coordinates": [
          [
            [
              113.3116243,
              23.1209176
            ],
            [
              113.3121451,
              23.1208986
            ],
            [
              113.3121389,
              23.1207549
            ],
            [
              113.3117714,
              23.1207683
            ],
            [
              113.3117662,
              23.1206477
            ],
            [
              113.3119048,
              23.1206426
            ],
            [
              113.311898,
              23.1204851
            ],
            [
              113.3116061,
              23.1204957
            ],
            [
              113.3116243,
              23.1209176
            ]
          ]
        ]
      },
      "properties": {
        "id": "w941839649",
        "building": "apartments",
        "building:levels": "33",
        "name": "珠江都荟华庭"
      }
    },
    {
      "type": "Feature",
      "geometry": {
        "type": "Polygon",
        "coordinates": [
          [
            [
              113.3109213,
              23.1209926
            ],
            [
              113.3111184,
              23.1209902
            ],
            [
              113.3111164,
              23.1208514
            ],
            [
              113.311217,
              23.1208502
            ],
            [
              113.3112188,
              23.1209766
            ],
            [
              113.3114125,
              23.1209742
            ],
            [
              113.311406,
              23.1205228
            ],
            [
              113.3112395,
              23.1205249
            ],
            [
              113.3112417,
              23.1206756
            ],
            [
              113.3111263,
              23.120677
            ],
            [
              113.3111241,
              23.1205189
            ],
            [
              113.3109147,
              23.1205214
            ],
            [
              113.3109213,
              23.1209926
            ]
          ]
        ]
      },
      "properties": {
        "id": "w941839869",
        "building": "apartments",
        "building:levels": "25",
        "name": "远洋明珠大厦"
      }
    },
    {
      "type": "Feature",
      "geometry": {
        "type": "Polygon",
        "coordinates": [
          [
            [
              113.3159619,
              23.120685
            ],
            [
              113.3167909,
              23.1206773
            ],
            [
              113.3167872,
              23.1203418
            ],
            [
              113.3159582,
              23.1203495
            ],
            [
              113.3159619,
              23.120685
            ]
          ]
        ]
      },
      "properties": {
        "id": "w949430318",
        "building": "yes",
        "building:levels": "3"
      }
    },
    {
      "type": "Feature",
      "geometry": {
        "type": "Polygon",
        "coordinates": [
          [
            [
              113.3147267,
              23.121643
            ],
            [
              113.3147167,
              23.1214508
            ],
            [
              113.3147077,
              23.1212418
            ],
            [
              113.3153868,
              23.121217
            ],
            [
              113.3153936,
              23.1213729
            ],
            [
              113.3153959,
              23.1214258
            ],
            [
              113.3152507,
              23.1214311
            ],
            [
              113.3152602,
              23.1216205
            ],
            [
              113.3147267,
              23.121643
            ]
          ]
        ]
      },
      "properties": {
        "id": "w995559492",
        "building": "commercial",
        "name": "南岳大厦",
        "name:zh": "南岳大厦"
      }
    },
    {
      "type": "Feature",
      "geometry": {
        "type": "Polygon",
        "coordinates": [
          [
            [
              113.3152665,
              23.1220569
            ],
            [
              113.3152643,
              23.1219169
            ],
            [
              113.3157134,
              23.121911
            ],
            [
              113.3157057,
              23.1214175
            ],
            [
              113.3158782,
              23.1214152
            ],
            [
              113.3158858,
              23.1219058
            ],
            [
              113.3163433,
              23.1218998
            ],
            [
              113.3163456,
              23.1220476
            ],
            [
              113.3158916,
              23.1220536
            ],
            [
              113.3158993,
              23.1225452
            ],
            [
              113.3157318,
              23.1225474
            ],
            [
              113.3157241,
              23.1220509
            ],
            [
              113.3152665,
              23.1220569
            ]
          ]
        ]
      },
      "properties": {
        "id": "w995559493",
        "building": "yes",
        "building:levels:underground": "1",
        "layer": "-1",
        "name": "珠江新城",
        "name:en": "Zhujiang New Town",
        "name:zh": "珠江新城",
        "opening_hours": "06:09-00:01",
        "operator": "广州地铁集团有限公司",
        "wikidata": "Q5976431",
        "wikimedia_commons": "Category:Zhujiang New Town Station",
        "wikipedia": "zh:珠江新城站"
      }
    },
    {
      "type": "Feature",
      "geometry": {
        "type": "Polygon",
        "coordinates": [
          [
            [
              113.3124148,
              23.1241364
            ],
            [
              113.3127431,
              23.1241038
            ],
            [
              113.3127209,
              23.1239143
            ],
            [
              113.3123926,
              23.1239468
            ],
            [
              113.3124148,
              23.1241364
            ]
          ]
        ]
      },
      "properties": {
        "id": "w1348002790",
        "building": "school"
      }
    },
    {
      "type": "Feature",
      "geometry": {
        "type": "Polygon",
        "coordinates": [
          [
            [
              113.3109457,
              23.1230533
            ],
            [
              113.3112081,
              23.1230342
            ],
            [
              113.3112019,
              23.1229626
            ],
            [
              113.3111818,
              23.122964
            ],
            [
              113.3111758,
              23.1228953
            ],
            [
              113.3111302,
              23.1228986
            ],
            [
              113.3111234,
              23.12282
            ],
            [
              113.3111855,
              23.1228155
            ],
            [
              113.3111795,
              23.1227462
            ],
            [
              113.3111636,
              23.1227474
            ],
            [
              113.3111579,
              23.1226808
            ],
            [
              113.3109301,
              23.1226975
            ],
            [
              113.3109359,
              23.122765
            ],
            [
              113.3109193,
              23.1227662
            ],
            [
              113.3109253,
              23.1228362
            ],
            [
              113.3109985,
              23.1228308
            ],
            [
              113.3110051,
              23.1229072
            ],
            [
              113.3109494,
              23.1229113
            ],
            [
              113.3109555,
              23.1229824
            ],
            [
              113.3109397,
              23.1229836
            ],
            [
              113.3109457,
              23.1230533
            ]
          ]
        ]
      },
      "properties": {
        "id": "w1498125901",
        "building": "apartments",
        "building:colour": "#f7ceb8",
        "building:levels": "33",
        "name": "龙庭阁"
      }
    },
    {
      "type": "Feature",
      "geometry": {
        "type": "Polygon",
        "coordinates": [
          [
            [
              113.3113284,
              23.1230263
            ],
            [
              113.3114682,
              23.1230187
            ],
            [
              113.311466,
              23.1229854
            ],
            [
              113.3114966,
              23.1229837
            ],
            [
              113.3114946,
              23.1229521
            ],
            [
              113.3115257,
              23.1229504
            ],
            [
              113.3115238,
              23.1229215
            ],
            [
              113.311552,
              23.12292
            ],
            [
              113.3115485,
              23.122866
            ],
            [
              113.3114864,
              23.1228694
            ],
            [
              113.3114815,
              23.1227934
            ],
            [
              113.3115386,
              23.1227902
            ],
            [
              113.3115338,
              23.1227153
            ],
            [
              113.3115189,
              23.1227161
            ],
            [
              113.3115148,
              23.1226538
            ],
            [
              113.3112951,
              23.1226658
            ],
            [
              113.3113044,
              23.1228098
            ],
            [
              113.3113505,
              23.1228072
            ],
            [
              113.3113551,
              23.1228777
            ],
            [
              113.311319,
              23.1228797
            ],
            [
              113.3113284,
              23.1230263
            ]
          ]
        ]
      },
      "properties": {
        "id": "w1498125902",
        "building": "apartments",
        "building:colour": "#f7ceb8",
        "building:levels": "33",
        "name": "聚龙阁"
      }
    },
    {
      "type": "Feature",
      "geometry": {
        "type": "Polygon",
        "coordinates": [
          [
            [
              113.316327,
              23.1232912
            ],
            [
              113.3162805,
              23.1232011
            ],
            [
              113.316251,
              23.1230753
            ],
            [
              113.316251,
              23.122947
            ],
            [
              113.3162778,
              23.1227472
            ],
            [
              113.3163301,
              23.1226288
            ],
            [
              113.3166302,
              23.1227515
            ],
            [
              113.3166146,
              23.1228861
            ],
            [
              113.3166153,
              23.123054
            ],
            [
              113.3166266,
              23.1231586
            ],
            [
              113.316327,
              23.1232912
            ]
          ]
        ]
      },
      "properties": {
        "id": "w299812754",
        "building:part": "commercial"
      }
    },
    {
      "type": "Feature",
      "geometry": {
        "type": "Polygon",
        "coordinates": [
          [
            [
              113.3168827,
              23.1225567
            ],
            [
              113.3168978,
              23.1225411
            ],
            [
              113.3169452,
              23.1224905
            ],
            [
              113.3169737,
              23.1224312
            ],
            [
              113.3169842,
              23.122387
            ],
            [
              113.3170252,
              23.1223917
            ],
            [
              113.3170316,
              23.1223694
            ],
            [
              113.3171231,
              23.1223867
            ],
            [
              113.3171923,
              23.1223884
            ],
            [
              113.3171892,
              23.1224297
            ],
            [
              113.3172289,
              23.1224362
            ],
            [
              113.3172565,
              23.1224407
            ],
            [
              113.3172624,
              23.1224213
            ],
            [
              113.3174518,
              23.1224425
            ],
            [
              113.3174217,
              23.122534
            ],
            [
              113.3174788,
              23.1225365
            ],
            [
              113.3173898,
              23.12287
            ],
            [
              113.317359,
              23.1228609
            ],
            [
              113.3173556,
              23.1228936
            ],
            [
              113.3172591,
              23.1228442
            ],
            [
              113.3171557,
              23.122782
            ],
            [
              113.3170605,
              23.1227191
            ],
            [
              113.3169076,
              23.1225933
            ],
            [
              113.3169183,
              23.1225797
            ],
            [
              113.3168827,
              23.1225567
            ]
          ]
        ]
      },
      "properties": {
        "id": "w299812755",
        "building:levels": "15",
        "building:min_level": "4",
        "building:part": "commercial",
        "name": "高德置地广场B座"
      }
    },
    {
      "type": "Feature",
      "geometry": {
        "type": "Polygon",
        "coordinates": [
          [
            [
              113.3163333,
              23.124228
            ],
            [
              113.3163018,
              23.1239278
            ],
            [
              113.3168121,
              23.1238791
            ],
            [
              113.3168502,
              23.1241792
            ],
            [
              113.3163333,
              23.124228
            ]
          ]
        ]
      },
      "properties": {
        "id": "w312888483",
        "building:part": "office"
      }
    },
    {
      "type": "Feature",
      "geometry": {
        "type": "Polygon",
        "coordinates": [
          [
            [
              113.3147167,
              23.1214508
            ],
            [
              113.3147077,
              23.1212418
            ],
            [
              113.3153868,
              23.121217
            ],
            [
              113.3153936,
              23.1213729
            ],
            [
              113.3153959,
              23.1214258
            ],
            [
              113.3152507,
              23.1214311
            ],
            [
              113.3147167,
              23.1214508
            ]
          ]
        ]
      },
      "properties": {
        "id": "w313905698",
        "building:part": "commercial"
      }
    },
    {
      "type": "Feature",
      "geometry": {
        "type": "Polygon",
        "coordinates": [
          [
            [
              113.3147167,
              23.1214508
            ],
            [
              113.3147267,
              23.121643
            ],
            [
              113.3152602,
              23.1216205
            ],
            [
              113.3152507,
              23.1214311
            ],
            [
              113.3147167,
              23.1214508
            ]
          ]
        ]
      },
      "properties": {
        "id": "w547067025",
        "building:part": "commercial"
      }
    },
    {
      "type": "Feature",
      "geometry": {
        "type": "Polygon",
        "coordinates": [
          [
            [
              113.317704,
              23.1236644
            ],
            [
              113.317749,
              23.1232243
            ],
            [
              113.3180818,
              23.1232586
            ],
            [
              113.3180885,
              23.1235025
            ],
            [
              113.3181172,
              23.1236689
            ],
            [
              113.3181171,
              23.123714
            ],
            [
              113.317704,
              23.1236644
            ]
          ]
        ]
      },
      "properties": {
        "id": "w586026851",
        "building:part": "commercial"
      }
    },
    {
      "type": "Feature",
      "geometry": {
        "type": "Polygon",
        "coordinates": [
          [
            [
              113.3177848,
              23.123023
            ],
            [
              113.3181053,
              23.1230641
            ],
            [
              113.3181455,
              23.1229159
            ],
            [
              113.318206,
              23.1227523
            ],
            [
              113.3182622,
              23.1226205
            ],
            [
              113.3178473,
              23.122569
            ],
            [
              113.3177848,
              23.123023
            ]
          ]
        ]
      },
      "properties": {
        "id": "w586026852",
        "building:part": "commercial"
      }
    }
  ]
}