{
  "type": "FeatureCollection",
  "features": [
    {
      "type": "Feature",
      "geometry": {
        "type": "LineString",
        "coordinates": [
          [
            113.3159165,
            23.1234679
          ],
          [
            113.3160346,
            23.1234614
          ],
          [
            113.3161466,
            23.1234553
          ],
          [
            113.3163749,
            23.1234378
          ],
          [
            113.3164281,
            23.1234335
          ],
          [
            113.3166502,
            23.1234154
          ]
        ]
      },
      "properties": {
        "id": "w29142233",
        "highway": "tertiary",
        "name": "华成路",
        "name:en": "Huacheng Road",
        "name:zh": "华成路"
      }
    },
    {
      "type": "Feature",
      "geometry": {
        "type": "LineString",
        "coordinates": [
          [
            113.3157016,
            23.1210389
          ],
          [
            113.315608,
            23.1210413
          ],
          [
            113.3146579,
            23.1210662
          ],
          [
            113.3138637,
            23.1210869
          ],
          [
            113.3130659,
            23.1211078
          ],
          [
            113.3130181,
            23.121109
          ]
        ]
      },
      "properties": {
        "id": "w184740438",
        "highway": "unclassified",
        "name": "华政街",
        "name:en": "Huazheng Street",
        "name:zh": "华政街"
      }
    },
    {
      "type": "Feature",
      "geometry": {
        "type": "LineString",
        "coordinates": [
          [
            113.3130729,
            23.1223637
          ],
          [
            113.3129847,
            23.1223685
          ]
        ]
      },
      "properties": {
        "id": "w199898039",
        "bicycle": "no",
        "foot": "no",
        "highway": "primary",
        "horse": "no",
        "name": "花城大道",
        "name:en": "Huacheng Avenue",
        "name:zh": "花城大道",
        "oneway": "yes"
      }
    },
    {
      "type": "Feature",
      "geometry": {
        "type": "LineString",
        "coordinates": [
          [
            113.3157358,
            23.1226265
          ],
          [
            113.3156895,
            23.1224924
          ],
          [
            113.3156488,
            23.1224083
          ],
          [
            113.3156028,
            23.1223546
          ],
          [
            113.3155578,
            23.1223184
          ],
          [
            113.3155505,
            23.1223125
          ],
          [
            113.3154793,
            23.1222663
          ],
          [
            113.3154158,
            23.1222316
          ],
          [
            113.3153469,
            23.1222065
          ],
          [
            113.3152621,
            23.1221801
          ]
        ]
      },
      "properties": {
        "id": "w199898409",
        "highway": "secondary_link",
        "oneway": "yes"
      }
    },
    {
      "type": "Feature",
      "geometry": {
        "type": "LineString",
        "coordinates": [
          [
            113.3150843,
            23.1219391
          ],
          [
            113.3152684,
            23.1218877
          ],
          [
            113.3154033,
            23.1218378
          ],
          [
            113.3155299,
            23.1217532
          ],
          [
            113.3155929,
            23.1216909
          ],
          [
            113.3156626,
            23.121555
          ],
          [
            113.3157175,
            23.121395
          ]
        ]
      },
      "properties": {
        "id": "w199898412",
        "highway": "secondary_link",
        "name": "花城大道",
        "name:en": "Huacheng Avenue",
        "name:zh": "花城大道",
        "oneway": "yes"
      }
    },
    {
      "type": "Feature",
      "geometry": {
        "type": "LineString",
        "coordinates": [
          [
            113.3129654,
            23.1220725
          ],
          [
            113.3130492,
            23.1220664
          ]
        ]
      },
      "properties": {
        "id": "w233525478",
        "bicycle": "no",
        "foot": "no",
        "highway": "primary",
        "horse": "no",
        "lanes": "3",
        "name": "花城大道",
        "name:en": "Huacheng Avenue",
        "name:zh": "花城大道",
        "oneway": "yes"
      }
    },
    {
      "type": "Feature",
      "geometry": {
        "type": "LineString",
        "coordinates": [
          [
            113.3158844,
            23.1213871
          ],
          [
            113.3159071,
            23.1214658
          ],
          [
            113.315923,
            23.1215156
          ],
          [
            113.3159498,
            23.1215674
          ],
          [
            113.3159793,
            23.1216118
          ],
          [
            113.3160068,
            23.1216513
          ],
          [
            113.3160368,
            23.121691
          ],
          [
            113.3160692,
            23.1217279
          ],
          [
            113.3161136,
            23.1217667
          ],
          [
            113.3161616,
            23.1217997
          ],
          [
            113.3162232,
            23.1218309
          ],
          [
            113.3162954,
            23.1218636
          ],
          [
            113.3163731,
            23.1218956
          ]
        ]
      },
      "properties": {
        "id": "w248407674",
        "highway": "secondary_link",
        "oneway": "yes"
      }
    },
    {
      "type": "Feature",
      "geometry": {
        "type": "LineString",
        "coordinates": [
          [
            113.3163536,
            23.122121
          ],
          [
            113.3162352,
            23.1221629
          ],
          [
            113.3161885,
            23.1221866
          ],
          [
            113.3161295,
            23.1222285
          ],
          [
            113.3160897,
            23.122267
          ],
          [
            113.3160785,
            23.1222778
          ],
          [
            113.3160329,
            23.1223272
          ],
          [
            113.3159891,
            23.1223771
          ],
          [
            113.3159498,
            23.1224332
          ],
          [
            113.3159278,
            23.1224906
          ],
          [
            113.3159032,
            23.1226103
          ]
        ]
      },
      "properties": {
        "id": "w248407676",
        "highway": "secondary_link",
        "oneway": "yes"
      }
    },
    {
      "type": "Feature",
      "geometry": {
        "type": "LineString",
        "coordinates": [
          [
            113.3175497,
            23.1219167
          ],
          [
            113.3160053,
            23.1220767
          ],
          [
            113.3158931,
            23.1220911
          ]
        ]
      },
      "properties": {
        "id": "w248407677",
        "bicycle": "no",
        "foot": "no",
        "highway": "primary",
        "horse": "no",
        "name": "花城大道",
        "name:en": "Huacheng Avenue",
        "name:zh": "花城大道",
        "oneway": "yes"
      }
    },
    {
      "type": "Feature",
      "geometry": {
        "type": "LineString",
        "coordinates": [
          [
            113.3176687,
            23.122556
          ],
          [
            113.3176708,
            23.1223155
          ],
          [
            113.3176655,
            23.1222637
          ],
          [
            113.3176475,
            23.1222186
          ],
          [
            113.3176323,
            23.1221952
          ],
          [
            113.3176234,
            23.1221816
          ],
          [
            113.3175858,
            23.1221397
          ],
          [
            113.3175495,
            23.1221107
          ],
          [
            113.317515,
            23.1220854
          ],
          [
            113.3174785,
            23.1220632
          ],
          [
            113.3174115,
            23.122046
          ]
        ]
      },
      "properties": {
        "id": "w248407678",
        "highway": "secondary_link",
        "oneway": "yes"
      }
    },
    {
      "type": "Feature",
      "geometry": {
        "type": "LineString",
        "coordinates": [
          [
            113.3175461,
            23.1217984
          ],
          [
            113.3208175,
            23.1215281
          ]
        ]
      },
      "properties": {
        "id": "w248407682",
        "bicycle": "no",
        "foot": "no",
        "highway": "primary",
        "horse": "no",
        "lanes": "3",
        "layer": "-1",
        "name": "CBD隧道",
        "name:en": "CBD Tunnel",
        "name:zh": "CBD隧道",
        "oneway": "yes",
        "sidewalk": "no",
        "tunnel": "yes"
      }
    },
    {
      "type": "Feature",
      "geometry": {
        "type": "LineString",
        "coordinates": [
          [
            113.3208302,
            23.1216448
          ],
          [
            113.3175497,
            23.1219167
          ]
        ]
      },
      "properties": {
        "id": "w248407685",
        "bicycle": "no",
        "foot": "no",
        "highway": "primary",
        "horse": "no",
        "lanes": "3",
        "layer": "-1",
        "name": "CBD隧道",
        "name:en": "CBD Tunnel",
        "name:zh": "CBD隧道",
        "oneway": "yes",
        "sidewalk": "no",
        "tunnel": "yes"
      }
    },
    {
      "type": "Feature",
      "geometry": {
        "type": "LineString",
        "coordinates": [
          [
            113.3175501,
            23.1217037
          ],
          [
            113.3176633,
            23.1216875
          ],
          [
            113.3177534,
            23.1216664
          ],
          [
            113.3178747,
            23.1216163
          ],
          [
            113.3179389,
            23.1215653
          ],
          [
            113.3180779,
            23.1213709
          ]
        ]
      },
      "properties": {
        "id": "w299795207",
        "highway": "secondary_link",
        "oneway": "yes"
      }
    },
    {
      "type": "Feature",
      "geometry": {
        "type": "LineString",
        "coordinates": [
          [
            113.3163731,
            23.1218956
          ],
          [
            113.3165413,
            23.1218349
          ],
          [
            113.3167281,
            23.1217811
          ],
          [
            113.3169484,
            23.1217545
          ],
          [
            113.3171894,
            23.1217341
          ],
          [
            113.317372,
            23.1217187
          ],
          [
            113.3175501,
            23.1217037
          ]
        ]
      },
      "properties": {
        "id": "w444126144",
        "highway": "secondary_link",
        "oneway": "yes"
      }
    },
    {
      "type": "Feature",
      "geometry": {
        "type": "LineString",
        "coordinates": [
          [
            113.3174115,
            23.122046
          ],
          [
            113.3163536,
            23.122121
          ]
        ]
      },
      "properties": {
        "id": "w444126145",
        "highway": "secondary_link",
        "oneway": "yes"
      }
    },
    {
      "type": "Feature",
      "geometry": {
        "type": "LineString",
        "coordinates": [
          [
            113.3175501,
            23.1217037
          ],
          [
            113.3176097,
            23.1217146
          ],
          [
            113.3176413,
            23.1217259
          ],
          [
            113.317677,
            23.1217574
          ],
          [
            113.3177003,
            23.1218073
          ],
          [
            113.3177119,
            23.121861
          ],
          [
            113.3177038,
            23.1219276
          ],
          [
            113.3176636,
            23.1219843
          ],
          [
            113.3176126,
            23.1220164
          ],
          [
            113.3175509,
            23.1220336
          ],
          [
            113.3174115,
            23.122046
          ]
        ]
      },
      "properties": {
        "id": "w444126146",
        "bicycle": "no",
        "foot": "no",
        "highway": "secondary_link",
        "horse": "no",
        "oneway": "yes"
      }
    },
    {
      "type": "Feature",
      "geometry": {
        "type": "LineString",
        "coordinates": [
          [
            113.3157358,
            23.1226265
          ],
          [
            113.315769,
            23.1226034
          ],
          [
            113.315789,
            23.1225935
          ],
          [
            113.3158322,
            23.1225892
          ],
          [
            113.3158645,
            23.1225935
          ],
          [
            113.3159032,
            23.1226103
          ]
        ]
      },
      "properties": {
        "id": "w444126147",
        "bicycle": "no",
        "foot": "no",
        "highway": "secondary_link",
        "horse": "no",
        "oneway": "yes"
      }
    },
    {
      "type": "Feature",
      "geometry": {
        "type": "LineString",
        "coordinates": [
          [
            113.3158844,
            23.1213871
          ],
          [
            113.3158629,
            23.1214131
          ],
          [
            113.3158398,
            23.1214301
          ],
          [
            113.3158075,
            23.12144
          ],
          [
            113.3157766,
            23.1214386
          ],
          [
            113.315752,
            23.1214273
          ],
          [
            113.3157175,
            23.121395
          ]
        ]
      },
      "properties": {
        "id": "w444126149",
        "bicycle": "no",
        "foot": "no",
        "highway": "secondary_link",
        "horse": "no",
        "oneway": "yes"
      }
    },
    {
      "type": "Feature",
      "geometry": {
        "type": "LineString",
        "coordinates": [
          [
            113.3180779,
            23.1213709
          ],
          [
            113.3182353,
            23.1211116
          ],
          [
            113.3183264,
            23.1209419
          ],
          [
            113.3183964,
            23.1207444
          ],
          [
            113.3185272,
            23.1203278
          ],
          [
            113.3186392,
            23.1199584
          ]
        ]
      },
      "properties": {
        "id": "w444149841",
        "highway": "secondary_link",
        "oneway": "yes"
      }
    },
    {
      "type": "Feature",
      "geometry": {
        "type": "LineString",
        "coordinates": [
          [
            113.3106035,
            23.1252294
          ],
          [
            113.3106021,
            23.1251862
          ],
          [
            113.3105967,
            23.1250865
          ],
          [
            113.3105945,
            23.1249682
          ],
          [
            113.310579,
            23.1241315
          ],
          [
            113.3105929,
            23.1240482
          ],
          [
            113.3106198,
            23.1240108
          ],
          [
            113.3106403,
            23.1239823
          ],
          [
            113.3107378,
            23.1239224
          ],
          [
            113.3108322,
            23.123883
          ],
          [
            113.3117554,
            23.1238205
          ],
          [
            113.3128575,
            23.123746
          ],
          [
            113.3130582,
            23.1237324
          ],
          [
            113.3130855,
            23.1237306
          ],
          [
            113.3130906,
            23.1237303
          ],
          [
            113.3131435,
            23.1237265
          ],
          [
            113.3133229,
            23.1237123
          ],
          [
            113.3137514,
            23.1236793
          ],
          [
            113.3138383,
            23.1236726
          ],
          [
            113.3139256,
            23.1236659
          ],
          [
            113.3140203,
            23.1236586
          ],
          [
            113.3144595,
            23.1236227
          ],
          [
            113.3155811,
            23.1235342
          ],
          [
            113.3157378,
            23.1235218
          ]
        ]
      },
      "properties": {
        "id": "w444418076",
        "highway": "unclassified",
        "name": "华成路",
        "name:en": "Huacheng Road",
        "name:zh": "华成路"
      }
    },
    {
      "type": "Feature",
      "geometry": {
        "type": "LineString",
        "coordinates": [
          [
            113.3175381,
            23.1236095
          ],
          [
            113.3175201,
            23.1235461
          ],
          [
            113.3175034,
            23.1235161
          ],
          [
            113.3174711,
            23.1234797
          ],
          [
            113.3174074,
            23.1234228
          ],
          [
            113.3173704,
            23.1233941
          ],
          [
            113.3173085,
            23.1233612
          ]
        ]
      },
      "properties": {
        "id": "w444418079",
        "highway": "tertiary_link",
        "oneway": "yes"
      }
    },
    {
      "type": "Feature",
      "geometry": {
        "type": "LineString",
        "coordinates": [
          [
            113.3173085,
            23.1233612
          ],
          [
            113.3174034,
            23.1233107
          ],
          [
            113.3174472,
            23.123281
          ],
          [
            113.3174849,
            23.1232444
          ],
          [
            113.317515,
            23.1232099
          ],
          [
            113.3175721,
            23.1231165
          ]
        ]
      },
      "properties": {
        "id": "w444418080",
        "highway": "tertiary_link",
        "oneway": "yes"
      }
    },
    {
      "type": "Feature",
      "geometry": {
        "type": "LineString",
        "coordinates": [
          [
            113.3129654,
            23.1220725
          ],
          [
            113.3129555,
            23.1219316
          ],
          [
            113.3129333,
            23.1211128
          ]
        ]
      },
      "properties": {
        "id": "w444428461",
        "highway": "tertiary",
        "name": "华穗路",
        "name:en": "Huasui Road",
        "name:zh": "华穗路",
        "oneway": "yes",
        "oneway:bicycle": "no"
      }
    },
    {
      "type": "Feature",
      "geometry": {
        "type": "LineString",
        "coordinates": [
          [
            113.3130729,
            23.1223637
          ],
          [
            113.313083,
            23.122494
          ],
          [
            113.3130954,
            23.1227096
          ],
          [
            113.3131154,
            23.1231071
          ],
          [
            113.3131243,
            23.1232849
          ],
          [
            113.3131374,
            23.1235665
          ],
          [
            113.3131385,
            23.1235895
          ],
          [
            113.3131422,
            23.1236915
          ],
          [
            113.3131435,
            23.1237265
          ],
          [
            113.3131448,
            23.1237633
          ],
          [
            113.3131497,
            23.123897
          ],
          [
            113.3131515,
            23.1239453
          ],
          [
            113.3131622,
            23.1244415
          ],
          [
            113.3131675,
            23.1249009
          ],
          [
            113.3131678,
            23.1249145
          ],
          [
            113.3131703,
            23.1250419
          ],
          [
            113.3131707,
            23.1250633
          ]
        ]
      },
      "properties": {
        "id": "w444433525",
        "highway": "tertiary",
        "name": "华穗路",
        "name:en": "Huasui Road",
        "name:zh": "华穗路",
        "oneway": "yes"
      }
    },
    {
      "type": "Feature",
      "geometry": {
        "type": "LineString",
        "coordinates": [
          [
            113.3159032,
            23.1226103
          ],
          [
            113.3159635,
            23.1226791
          ],
          [
            113.3160041,
            23.1227303
          ],
          [
            113.3160229,
            23.1227611
          ],
          [
            113.3160269,
            23.1227969
          ],
          [
            113.3160252,
            23.1228869
          ]
        ]
      },
      "properties": {
        "id": "w448781892",
        "highway": "service",
        "oneway": "yes",
        "service": "driveway"
      }
    },
    {
      "type": "Feature",
      "geometry": {
        "type": "LineString",
        "coordinates": [
          [
            113.3159032,
            23.1226103
          ],
          [
            113.3159059,
            23.1227863
          ],
          [
            113.3159076,
            23.1228955
          ],
          [
            113.3159165,
            23.1234679
          ]
        ]
      },
      "properties": {
        "id": "w448781893",
        "highway": "secondary",
        "name": "华夏路",
        "name:en": "Huaxia Road",
        "name:zh": "华夏路",
        "name:zh-Latn-pinyin": "huá xià lù",
        "oneway": "yes"
      }
    },
    {
      "type": "Feature",
      "geometry": {
        "type": "LineString",
        "coordinates": [
          [
            113.3163536,
            23.122121
          ],
          [
            113.3160598,
            23.1221397
          ],
          [
            113.3158943,
            23.1221556
          ]
        ]
      },
      "properties": {
        "id": "w448786344",
        "bicycle": "no",
        "foot": "no",
        "highway": "secondary_link",
        "horse": "no",
        "oneway": "yes"
      }
    },
    {
      "type": "Feature",
      "geometry": {
        "type": "LineString",
        "coordinates": [
          [
            113.3160252,
            23.1228869
          ],
          [
            113.3160215,
            23.1229967
          ],
          [
            113.3160148,
            23.1230596
          ],
          [
            113.3159974,
            23.1231435
          ],
          [
            113.3159165,
            23.1234679
          ]
        ]
      },
      "properties": {
        "id": "w448786345",
        "highway": "service",
        "oneway": "yes",
        "service": "driveway"
      }
    },
    {
      "type": "Feature",
      "geometry": {
        "type": "LineString",
        "coordinates": [
          [
            113.3175721,
            23.1231165
          ],
          [
            113.3175939,
            23.12301
          ],
          [
            113.3176193,
            23.1228561
          ],
          [
            113.3176647,
            23.1225804
          ],
          [
            113.3176687,
            23.122556
          ]
        ]
      },
      "properties": {
        "id": "w448790072",
        "highway": "secondary",
        "name": "珠江西路",
        "name:en": "Zhujiang West Road",
        "name:zh": "珠江西路",
        "name:zh-Latn-pinyin": "zhū jiāng xī lù",
        "oneway": "yes"
      }
    },
    {
      "type": "Feature",
      "geometry": {
        "type": "LineString",
        "coordinates": [
          [
            113.3176687,
            23.122556
          ],
          [
            113.3176789,
            23.1225167
          ],
          [
            113.317705,
            23.1224096
          ],
          [
            113.3177644,
            23.1222227
          ],
          [
            113.3180779,
            23.1213709
          ]
        ]
      },
      "properties": {
        "id": "w448790073",
        "highway": "secondary",
        "name": "珠江西路",
        "name:en": "Zhujiang West Road",
        "name:zh": "珠江西路",
        "name:zh-Latn-pinyin": "zhū jiāng xī lù",
        "oneway": "yes"
      }
    },
    {
      "type": "Feature",
      "geometry": {
        "type": "LineString",
        "coordinates": [
          [
            113.3152621,
            23.1221801
          ],
          [
            113.3143592,
            23.1222558
          ],
          [
            113.3139234,
            23.1222924
          ],
          [
            113.3136276,
            23.1223172
          ],
          [
            113.3133801,
            23.122338
          ],
          [
            113.3130729,
            23.1223637
          ]
        ]
      },
      "properties": {
        "id": "w448790074",
        "highway": "primary",
        "name": "花城大道",
        "name:en": "Huacheng Avenue",
        "name:zh": "花城大道",
        "oneway": "yes"
      }
    },
    {
      "type": "Feature",
      "geometry": {
        "type": "LineString",
        "coordinates": [
          [
            113.3108046,
            23.1222298
          ],
          [
            113.3110476,
            23.1222121
          ],
          [
            113.3111482,
            23.1222048
          ],
          [
            113.3118139,
            23.1221563
          ],
          [
            113.3125152,
            23.1221053
          ],
          [
            113.3126945,
            23.1220922
          ],
          [
            113.3129654,
            23.1220725
          ]
        ]
      },
      "properties": {
        "id": "w450614677",
        "highway": "primary",
        "name": "花城大道",
        "name:en": "Huacheng Avenue",
        "name:zh": "花城大道",
        "oneway": "yes"
      }
    },
    {
      "type": "Feature",
      "geometry": {
        "type": "LineString",
        "coordinates": [
          [
            113.3157379,
            23.1219144
          ],
          [
            113.3157308,
            23.1217271
          ],
          [
            113.3157175,
            23.121395
          ]
        ]
      },
      "properties": {
        "id": "w457885320",
        "bicycle": "no",
        "foot": "no",
        "highway": "secondary",
        "horse": "no",
        "name": "华夏路",
        "name:en": "Huaxia Road",
        "name:zh": "华夏路",
        "name:zh-Latn-pinyin": "huá xià lù",
        "oneway": "yes"
      }
    },
    {
      "type": "Feature",
      "geometry": {
        "type": "LineString",
        "coordinates": [
          [
            113.3157379,
            23.1219144
          ],
          [
            113.3158887,
            23.12191
          ]
        ]
      },
      "properties": {
        "id": "w457885321",
        "bicycle": "no",
        "foot": "no",
        "highway": "primary",
        "horse": "no",
        "lanes": "3",
        "name": "花城大道",
        "name:en": "Huacheng Avenue",
        "name:zh": "花城大道",
        "oneway": "yes"
      }
    },
    {
      "type": "Feature",
      "geometry": {
        "type": "LineString",
        "coordinates": [
          [
            113.3158931,
            23.1220911
          ],
          [
            113.3158943,
            23.1221556
          ]
        ]
      },
      "properties": {
        "id": "w457886990",
        "bicycle": "no",
        "foot": "no",
        "highway": "secondary",
        "horse": "no",
        "name": "华夏路",
        "name:en": "Huaxia Road",
        "name:zh": "华夏路",
        "name:zh-Latn-pinyin": "huá xià lù",
        "oneway": "yes"
      }
    },
    {
      "type": "Feature",
      "geometry": {
        "type": "LineString",
        "coordinates": [
          [
            113.3158931,
            23.1220911
          ],
          [
            113.3157381,
            23.1221158
          ]
        ]
      },
      "properties": {
        "id": "w457886991",
        "bicycle": "no",
        "foot": "no",
        "highway": "primary",
        "horse": "no",
        "name": "花城大道",
        "name:en": "Huacheng Avenue",
        "name:zh": "花城大道",
        "oneway": "yes"
      }
    },
    {
      "type": "Feature",
      "geometry": {
        "type": "LineString",
        "coordinates": [
          [
            113.3130492,
            23.1220664
          ],
          [
            113.3133539,
            23.1220473
          ],
          [
            113.313592,
            23.1220324
          ],
          [
            113.3142047,
            23.1219941
          ],
          [
            113.3150843,
            23.1219391
          ]
        ]
      },
      "properties": {
        "id": "w462131778",
        "highway": "primary",
        "lanes": "3",
        "name": "花城大道",
        "name:en": "Huacheng Avenue",
        "name:zh": "花城大道",
        "oneway": "yes"
      }
    },
    {
      "type": "Feature",
      "geometry": {
        "type": "LineString",
        "coordinates": [
          [
            113.3130492,
            23.1220664
          ],
          [
            113.3130729,
            23.1223637
          ]
        ]
      },
      "properties": {
        "id": "w462131779",
        "bicycle": "no",
        "foot": "no",
        "highway": "tertiary",
        "horse": "no",
        "name": "华穗路",
        "name:en": "Huasui Road",
        "name:zh": "华穗路",
        "oneway": "yes"
      }
    },
    {
      "type": "Feature",
      "geometry": {
        "type": "LineString",
        "coordinates": [
          [
            113.3131347,
            23.1266824
          ],
          [
            113.3131254,
            23.1264263
          ],
          [
            113.3131187,
            23.1262075
          ],
          [
            113.3131159,
            23.1261152
          ],
          [
            113.3131039,
            23.1257146
          ],
          [
            113.3130913,
            23.1252941
          ],
          [
            113.3130906,
            23.1252493
          ],
          [
            113.3130886,
            23.125108
          ],
          [
            113.313088,
            23.1250682
          ],
          [
            113.3130878,
            23.1250548
          ],
          [
            113.3130858,
            23.1249188
          ],
          [
            113.3130791,
            23.1244644
          ],
          [
            113.313076,
            23.1241992
          ],
          [
            113.3130677,
            23.1239007
          ],
          [
            113.3130594,
            23.1237537
          ],
          [
            113.3130582,
            23.1237324
          ],
          [
            113.3130572,
            23.1237149
          ],
          [
            113.3130491,
            23.1235735
          ],
          [
            113.3130453,
            23.1235078
          ],
          [
            113.3130235,
            23.1230562
          ],
          [
            113.3130062,
            23.1226987
          ],
          [
            113.3129952,
            23.1224981
          ],
          [
            113.3129847,
            23.1223685
          ]
        ]
      },
      "properties": {
        "id": "w462138645",
        "highway": "tertiary",
        "name": "华穗路",
        "name:en": "Huasui Road",
        "name:zh": "华穗路",
        "oneway": "yes"
      }
    },
    {
      "type": "Feature",
      "geometry": {
        "type": "LineString",
        "coordinates": [
          [
            113.3129847,
            23.1223685
          ],
          [
            113.3129654,
            23.1220725
          ]
        ]
      },
      "properties": {
        "id": "w462138646",
        "bicycle": "no",
        "foot": "no",
        "highway": "tertiary",
        "horse": "no",
        "name": "华穗路",
        "name:en": "Huasui Road",
        "name:zh": "华穗路",
        "oneway": "yes"
      }
    },
    {
      "type": "Feature",
      "geometry": {
        "type": "LineString",
        "coordinates": [
          [
            113.3176543,
            23.1249919
          ],
          [
            113.317642,
            23.1249008
          ],
          [
            113.3176256,
            23.12478
          ],
          [
            113.3176116,
            23.1246769
          ],
          [
            113.31758,
            23.1244396
          ],
          [
            113.3175667,
            23.1243402
          ],
          [
            113.317561,
            23.1242971
          ],
          [
            113.3175411,
            23.1240409
          ],
          [
            113.3175347,
            23.1237715
          ],
          [
            113.3175367,
            23.1236822
          ],
          [
            113.3175381,
            23.1236095
          ]
        ]
      },
      "properties": {
        "id": "w481045539",
        "highway": "secondary",
        "name": "珠江西路",
        "name:en": "Zhujiang West Road",
        "name:zh": "珠江西路",
        "name:zh-Latn-pinyin": "zhū jiāng xī lù",
        "oneway": "yes"
      }
    },
    {
      "type": "Feature",
      "geometry": {
        "type": "LineString",
        "coordinates": [
          [
            113.3157739,
            23.1248425
          ],
          [
            113.3157674,
            23.1246061
          ],
          [
            113.3157378,
            23.1235218
          ],
          [
            113.3157343,
            23.1228917
          ],
          [
            113.3157333,
            23.1227217
          ],
          [
            113.3157358,
            23.1226265
          ]
        ]
      },
      "properties": {
        "id": "w481045541",
        "highway": "secondary",
        "name": "华夏路",
        "name:en": "Huaxia Road",
        "name:zh": "华夏路",
        "name:zh-Latn-pinyin": "huá xià lù",
        "oneway": "yes"
      }
    },
    {
      "type": "Feature",
      "geometry": {
        "type": "LineString",
        "coordinates": [
          [
            113.3129847,
            23.1223685
          ],
          [
            113.3127188,
            23.1223828
          ],
          [
            113.312526,
            23.1223931
          ]
        ]
      },
      "properties": {
        "id": "w481045545",
        "highway": "primary",
        "name": "花城大道",
        "name:en": "Huacheng Avenue",
        "name:zh": "花城大道",
        "oneway": "yes"
      }
    },
    {
      "type": "Feature",
      "geometry": {
        "type": "LineString",
        "coordinates": [
          [
            113.3150843,
            23.1219391
          ],
          [
            113.3154895,
            23.1219235
          ],
          [
            113.3155994,
            23.1219193
          ],
          [
            113.3156214,
            23.1219185
          ],
          [
            113.3157379,
            23.1219144
          ]
        ]
      },
      "properties": {
        "id": "w481045546",
        "bicycle": "no",
        "foot": "no",
        "highway": "primary",
        "horse": "no",
        "lanes": "3",
        "name": "花城大道",
        "name:en": "Huacheng Avenue",
        "name:zh": "花城大道",
        "oneway": "yes"
      }
    },
    {
      "type": "Feature",
      "geometry": {
        "type": "LineString",
        "coordinates": [
          [
            113.3146388,
            23.1202861
          ],
          [
            113.3146407,
            23.1203626
          ],
          [
            113.3146579,
            23.1210662
          ]
        ]
      },
      "properties": {
        "id": "w513785001",
        "highway": "unclassified",
        "name": "华政直街",
        "name:en": "Huazheng Straight Street",
        "name:zh": "华政直街"
      }
    },
    {
      "type": "Feature",
      "geometry": {
        "type": "LineString",
        "coordinates": [
          [
            113.3169484,
            23.1217545
          ],
          [
            113.3169476,
            23.1217098
          ],
          [
            113.3169295,
            23.1207599
          ],
          [
            113.3169074,
            23.119596
          ],
          [
            113.3169054,
            23.1194909
          ]
        ]
      },
      "properties": {
        "id": "w513786153",
        "highway": "unclassified",
        "lanes": "2",
        "name": "珠江西四街",
        "name:zh": "珠江西四街",
        "oneway": "no"
      }
    },
    {
      "type": "Feature",
      "geometry": {
        "type": "LineString",
        "coordinates": [
          [
            113.3158713,
            23.1207695
          ],
          [
            113.3159594,
            23.1207687
          ],
          [
            113.316691,
            23.1207621
          ],
          [
            113.3168619,
            23.1207605
          ],
          [
            113.3169295,
            23.1207599
          ]
        ]
      },
      "properties": {
        "id": "w513786154",
        "highway": "service",
        "service": "alley"
      }
    },
    {
      "type": "Feature",
      "geometry": {
        "type": "LineString",
        "coordinates": [
          [
            113.3118347,
            23.1255921
          ],
          [
            113.3118001,
            23.125159
          ],
          [
            113.3117554,
            23.1238205
          ]
        ]
      },
      "properties": {
        "id": "w520107251",
        "highway": "unclassified",
        "name": "华明直街"
      }
    },
    {
      "type": "Feature",
      "geometry": {
        "type": "LineString",
        "coordinates": [
          [
            113.3158442,
            23.1194861
          ],
          [
            113.3158562,
            23.120055
          ],
          [
            113.3158584,
            23.1201578
          ],
          [
            113.3158713,
            23.1207695
          ],
          [
            113.3158844,
            23.1213871
          ]
        ]
      },
      "properties": {
        "id": "w526242004",
        "highway": "secondary",
        "name": "华夏路",
        "name:en": "Huaxia Road",
        "name:zh": "华夏路",
        "name:zh-Latn-pinyin": "huá xià lù",
        "oneway": "yes"
      }
    },
    {
      "type": "Feature",
      "geometry": {
        "type": "LineString",
        "coordinates": [
          [
            113.3158844,
            23.1213871
          ],
          [
            113.3158867,
            23.1216449
          ],
          [
            113.3158905,
            23.1217248
          ],
          [
            113.3158887,
            23.12191
          ]
        ]
      },
      "properties": {
        "id": "w526242005",
        "bicycle": "no",
        "foot": "no",
        "highway": "secondary",
        "horse": "no",
        "name": "华夏路",
        "name:en": "Huaxia Road",
        "name:zh": "华夏路",
        "name:zh-Latn-pinyin": "huá xià lù",
        "oneway": "yes"
      }
    },
    {
      "type": "Feature",
      "geometry": {
        "type": "LineString",
        "coordinates": [
          [
            113.3163731,
            23.1218956
          ],
          [
            113.3166775,
            23.1218761
          ],
          [
            113.3175461,
            23.1217984
          ]
        ]
      },
      "properties": {
        "id": "w526242006",
        "bicycle": "no",
        "foot": "no",
        "highway": "primary",
        "horse": "no",
        "lanes": "3",
        "name": "花城大道",
        "name:en": "Huacheng Avenue",
        "name:zh": "花城大道",
        "oneway": "yes"
      }
    },
    {
      "type": "Feature",
      "geometry": {
        "type": "LineString",
        "coordinates": [
          [
            113.3119983,
            23.1230998
          ],
          [
            113.3120008,
            23.1231242
          ],
          [
            113.3120056,
            23.1231708
          ],
          [
            113.3119877,
            23.1232403
          ],
          [
            113.3119465,
            23.1233007
          ],
          [
            113.3118864,
            23.1233458
          ],
          [
            113.3118137,
            23.1233708
          ],
          [
            113.3117443,
            23.1233804
          ],
          [
            113.3116603,
            23.1233513
          ],
          [
            113.3115963,
            23.1233079
          ],
          [
            113.3115514,
            23.1232477
          ],
          [
            113.3115306,
            23.1231772
          ],
          [
            113.3115333,
            23.1231415
          ],
          [
            113.3115361,
            23.1231043
          ],
          [
            113.3115673,
            23.1230371
          ],
          [
            113.3116208,
            23.1229831
          ],
          [
            113.3116907,
            23.1229482
          ],
          [
            113.3117533,
            23.1229389
          ],
          [
            113.3117691,
            23.1229365
          ],
          [
            113.3118456,
            23.1229485
          ],
          [
            113.3119138,
            23.1229824
          ],
          [
            113.3119666,
            23.1230347
          ],
          [
            113.3119983,
            23.1230998
          ]
        ]
      },
      "properties": {
        "id": "w544809832",
        "highway": "unclassified",
        "oneway": "yes"
      }
    },
    {
      "type": "Feature",
      "geometry": {
        "type": "LineString",
        "coordinates": [
          [
            113.3117554,
            23.1238205
          ],
          [
            113.3117443,
            23.1233804
          ]
        ]
      },
      "properties": {
        "id": "w544809833",
        "highway": "unclassified",
        "name": "华明直街"
      }
    },
    {
      "type": "Feature",
      "geometry": {
        "type": "LineString",
        "coordinates": [
          [
            113.3117533,
            23.1229389
          ],
          [
            113.3117434,
            23.1225278
          ],
          [
            113.3117401,
            23.1224353
          ]
        ]
      },
      "properties": {
        "id": "w544809834",
        "highway": "unclassified",
        "name": "华明直街"
      }
    },
    {
      "type": "Feature",
      "geometry": {
        "type": "LineString",
        "coordinates": [
          [
            113.3120008,
            23.1231242
          ],
          [
            113.3129405,
            23.1230617
          ],
          [
            113.3130235,
            23.1230562
          ]
        ]
      },
      "properties": {
        "id": "w544809835",
        "highway": "unclassified"
      }
    },
    {
      "type": "Feature",
      "geometry": {
        "type": "LineString",
        "coordinates": [
          [
            113.3190164,
            23.1214012
          ],
          [
            113.3190393,
            23.1214011
          ],
          [
            113.3191024,
            23.1214009
          ],
          [
            113.3193304,
            23.1214
          ],
          [
            113.3193499,
            23.1214
          ],
          [
            113.319346,
            23.1209936
          ],
          [
            113.3191714,
            23.1209949
          ],
          [
            113.3190125,
            23.120996
          ],
          [
            113.3190164,
            23.1214012
          ]
        ]
      },
      "properties": {
        "id": "w554611949",
        "area": "yes",
        "highway": "pedestrian",
        "layer": "-1"
      }
    },
    {
      "type": "Feature",
      "geometry": {
        "type": "LineString",
        "coordinates": [
          [
            113.3190608,
            23.1224489
          ],
          [
            113.3192217,
            23.1224519
          ],
          [
            113.3193263,
            23.1224539
          ],
          [
            113.3193491,
            23.122296
          ],
          [
            113.319384,
            23.1221096
          ],
          [
            113.3189911,
            23.1221126
          ],
          [
            113.319034,
            23.122296
          ],
          [
            113.3190608,
            23.1224489
          ]
        ]
      },
      "properties": {
        "id": "w554611951",
        "area": "yes",
        "highway": "pedestrian",
        "layer": "-1"
      }
    },
    {
      "type": "Feature",
      "geometry": {
        "type": "LineString",
        "coordinates": [
          [
            113.3157358,
            23.1226265
          ],
          [
            113.3157428,
            23.1224923
          ],
          [
            113.3157478,
            23.1223717
          ],
          [
            113.3157456,
            23.1223139
          ],
          [
            113.3157426,
            23.1222358
          ],
          [
            113.3157401,
            23.1221698
          ]
        ]
      },
      "properties": {
        "id": "w589390785",
        "bicycle": "no",
        "foot": "no",
        "highway": "secondary",
        "horse": "no",
        "name": "华夏路",
        "name:en": "Huaxia Road",
        "name:zh": "华夏路",
        "name:zh-Latn-pinyin": "huá xià lù",
        "oneway": "yes"
      }
    },
    {
      "type": "Feature",
      "geometry": {
        "type": "LineString",
        "coordinates": [
          [
            113.3159165,
            23.1234679
          ],
          [
            113.3159188,
            23.1237562
          ],
          [
            113.3159418,
            23.1245806
          ],
          [
            113.3159425,
            23.1246005
          ],
          [
            113.3159498,
            23.1248306
          ]
        ]
      },
      "properties": {
        "id": "w624720024",
        "highway": "secondary",
        "name": "华夏路",
        "name:en": "Huaxia Road",
        "name:zh": "华夏路",
        "name:zh-Latn-pinyin": "huá xià lù",
        "oneway": "yes"
      }
    },
    {
      "type": "Feature",
      "geometry": {
        "type": "LineString",
        "coordinates": [
          [
            113.3157175,
            23.121395
          ],
          [
            113.3157016,
            23.1210389
          ],
          [
            113.31568,
            23.1203451
          ],
          [
            113.3156781,
            23.1202839
          ],
          [
            113.3156766,
            23.1201606
          ],
          [
            113.3156594,
            23.1187815
          ],
          [
            113.3156584,
            23.1186973
          ],
          [
            113.3156577,
            23.1186437
          ]
        ]
      },
      "properties": {
        "id": "w624720029",
        "highway": "secondary",
        "name": "华夏路",
        "name:en": "Huaxia Road",
        "name:zh": "华夏路",
        "name:zh-Latn-pinyin": "huá xià lù",
        "oneway": "yes"
      }
    },
    {
      "type": "Feature",
      "geometry": {
        "type": "LineString",
        "coordinates": [
          [
            113.3166647,
            23.1232694
          ],
          [
            113.3166671,
            23.1232494
          ],
          [
            113.3166778,
            23.1232166
          ],
          [
            113.3166934,
            23.1231949
          ],
          [
            113.3167256,
            23.1231755
          ],
          [
            113.3167673,
            23.1231586
          ],
          [
            113.3168214,
            23.1231496
          ],
          [
            113.3168885,
            23.1231431
          ],
          [
            113.3169582,
            23.1231406
          ],
          [
            113.3170177,
            23.1231396
          ],
          [
            113.3170975,
            23.1231425
          ],
          [
            113.3171468,
            23.1231487
          ],
          [
            113.3171798,
            23.1231594
          ],
          [
            113.3172064,
            23.1231823
          ],
          [
            113.3172134,
            23.1232049
          ]
        ]
      },
      "properties": {
        "id": "w688292104",
        "highway": "service",
        "oneway": "yes",
        "service": "driveway",
        "tunnel": "building_passage"
      }
    },
    {
      "type": "Feature",
      "geometry": {
        "type": "LineString",
        "coordinates": [
          [
            113.3172227,
            23.1232351
          ],
          [
            113.3172278,
            23.1232551
          ],
          [
            113.3172383,
            23.1232872
          ],
          [
            113.3172621,
            23.1233238
          ],
          [
            113.3173085,
            23.1233612
          ]
        ]
      },
      "properties": {
        "id": "w688292105",
        "highway": "service",
        "oneway": "yes",
        "service": "driveway"
      }
    },
    {
      "type": "Feature",
      "geometry": {
        "type": "LineString",
        "coordinates": [
          [
            113.3166502,
            23.1234154
          ],
          [
            113.3173085,
            23.1233612
          ]
        ]
      },
      "properties": {
        "id": "w693763679",
        "highway": "tertiary",
        "name": "华成路",
        "name:en": "Huacheng Road",
        "name:zh": "华成路"
      }
    },
    {
      "type": "Feature",
      "geometry": {
        "type": "LineString",
        "coordinates": [
          [
            113.3175381,
            23.1236095
          ],
          [
            113.3175721,
            23.1231165
          ]
        ]
      },
      "properties": {
        "id": "w693765746",
        "highway": "secondary",
        "name": "珠江西路",
        "name:en": "Zhujiang West Road",
        "name:zh": "珠江西路",
        "name:zh-Latn-pinyin": "zhū jiāng xī lù",
        "oneway": "yes"
      }
    },
    {
      "type": "Feature",
      "geometry": {
        "type": "LineString",
        "coordinates": [
          [
            113.3136276,
            23.1223172
          ],
          [
            113.3135277,
            23.1222789
          ],
          [
            113.3134764,
            23.122214
          ],
          [
            113.3134699,
            23.1221356
          ],
          [
            113.3135146,
            23.1220739
          ],
          [
            113.313592,
            23.1220324
          ]
        ]
      },
      "properties": {
        "id": "w717926122",
        "bicycle": "no",
        "foot": "no",
        "highway": "primary_link",
        "horse": "no",
        "oneway": "yes"
      }
    },
    {
      "type": "Feature",
      "geometry": {
        "type": "LineString",
        "coordinates": [
          [
            113.3125152,
            23.1221053
          ],
          [
            113.3125975,
            23.1221552
          ],
          [
            113.3126443,
            23.122215
          ],
          [
            113.3126496,
            23.1222945
          ],
          [
            113.312615,
            23.1223589
          ],
          [
            113.312526,
            23.1223931
          ]
        ]
      },
      "properties": {
        "id": "w717926157",
        "bicycle": "no",
        "foot": "no",
        "highway": "primary_link",
        "horse": "no",
        "oneway": "yes"
      }
    },
    {
      "type": "Feature",
      "geometry": {
        "type": "LineString",
        "coordinates": [
          [
            113.3181217,
            23.1212479
          ],
          [
            113.318012,
            23.1211254
          ],
          [
            113.3177717,
            23.1208477
          ],
          [
            113.3179804,
            23.1206147
          ],
          [
            113.3181896,
            23.1206022
          ],
          [
            113.3183349,
            23.1205935
          ]
        ]
      },
      "properties": {
        "id": "w717941982",
        "highway": "service",
        "oneway": "yes"
      }
    },
    {
      "type": "Feature",
      "geometry": {
        "type": "LineString",
        "coordinates": [
          [
            113.3130181,
            23.121109
          ],
          [
            113.3130222,
            23.1213939
          ],
          [
            113.3130395,
            23.1219269
          ],
          [
            113.3130492,
            23.1220664
          ]
        ]
      },
      "properties": {
        "id": "w734144749",
        "highway": "tertiary",
        "name": "华穗路",
        "name:en": "Huasui Road",
        "name:zh": "华穗路",
        "oneway": "yes",
        "oneway:bicycle": "no"
      }
    },
    {
      "type": "Feature",
      "geometry": {
        "type": "LineString",
        "coordinates": [
          [
            113.3129333,
            23.1211128
          ],
          [
            113.3129249,
            23.1204301
          ],
          [
            113.3129245,
            23.1202897
          ],
          [
            113.3129242,
            23.120175
          ],
          [
            113.3129221,
            23.1194531
          ],
          [
            113.3129219,
            23.1193861
          ],
          [
            113.3129218,
            23.1193388
          ]
        ]
      },
      "properties": {
        "id": "w734144750",
        "highway": "tertiary",
        "name": "华穗路",
        "name:en": "Huasui Road",
        "name:zh": "华穗路",
        "oneway": "yes",
        "oneway:bicycle": "no"
      }
    },
    {
      "type": "Feature",
      "geometry": {
        "type": "LineString",
        "coordinates": [
          [
            113.3129333,
            23.1211128
          ],
          [
            113.3128849,
            23.1211136
          ],
          [
            113.3110257,
            23.1211452
          ],
          [
            113.3108694,
            23.1211479
          ]
        ]
      },
      "properties": {
        "id": "w734144751",
        "highway": "unclassified",
        "name": "华利北横街"
      }
    },
    {
      "type": "Feature",
      "geometry": {
        "type": "LineString",
        "coordinates": [
          [
            113.31385,
            23.1202878
          ],
          [
            113.3138513,
            23.1203645
          ],
          [
            113.3138637,
            23.1210869
          ]
        ]
      },
      "properties": {
        "id": "w734144752",
        "highway": "unclassified",
        "oneway": "yes"
      }
    },
    {
      "type": "Feature",
      "geometry": {
        "type": "LineString",
        "coordinates": [
          [
            113.3110476,
            23.1222121
          ],
          [
            113.3110456,
            23.1221542
          ],
          [
            113.3110257,
            23.1211452
          ]
        ]
      },
      "properties": {
        "id": "w734144753",
        "highway": "unclassified",
        "name": "华利北二直街"
      }
    },
    {
      "type": "Feature",
      "geometry": {
        "type": "LineString",
        "coordinates": [
          [
            113.3180779,
            23.1213709
          ],
          [
            113.3181217,
            23.1212479
          ],
          [
            113.3182332,
            23.1209348
          ],
          [
            113.3183237,
            23.1206311
          ],
          [
            113.3183349,
            23.1205935
          ],
          [
            113.31847,
            23.1201404
          ],
          [
            113.3185153,
            23.1199704
          ],
          [
            113.3185244,
            23.1199363
          ],
          [
            113.3185425,
            23.119866
          ],
          [
            113.3185514,
            23.1198086
          ],
          [
            113.3185479,
            23.119755
          ],
          [
            113.3185399,
            23.1197056
          ],
          [
            113.3185192,
            23.1196581
          ],
          [
            113.318487,
            23.1196137
          ],
          [
            113.3184441,
            23.1195718
          ],
          [
            113.3184012,
            23.1195471
          ],
          [
            113.3183422,
            23.1195348
          ],
          [
            113.3182573,
            23.1195215
          ]
        ]
      },
      "properties": {
        "id": "w737631342",
        "highway": "secondary",
        "name": "珠江西路",
        "name:en": "Zhujiang West Road",
        "name:zh": "珠江西路",
        "name:zh-Latn-pinyin": "zhū jiāng xī lù",
        "oneway": "yes"
      }
    },
    {
      "type": "Feature",
      "geometry": {
        "type": "LineString",
        "coordinates": [
          [
            113.3106208,
            23.1232064
          ],
          [
            113.3115333,
            23.1231415
          ]
        ]
      },
      "properties": {
        "id": "w737870913",
        "highway": "unclassified"
      }
    },
    {
      "type": "Feature",
      "geometry": {
        "type": "LineString",
        "coordinates": [
          [
            113.3166502,
            23.1234154
          ],
          [
            113.3166574,
            23.123343
          ],
          [
            113.3166647,
            23.1232694
          ]
        ]
      },
      "properties": {
        "id": "w993462510",
        "highway": "service",
        "oneway": "yes",
        "service": "driveway"
      }
    },
    {
      "type": "Feature",
      "geometry": {
        "type": "LineString",
        "coordinates": [
          [
            113.3157401,
            23.1221698
          ],
          [
            113.3156312,
            23.1221794
          ],
          [
            113.3156067,
            23.1221799
          ],
          [
            113.3154387,
            23.1221835
          ],
          [
            113.3152621,
            23.1221801
          ]
        ]
      },
      "properties": {
        "id": "w995559505",
        "bicycle": "no",
        "foot": "no",
        "highway": "secondary_link",
        "horse": "no",
        "oneway": "yes"
      }
    },
    {
      "type": "Feature",
      "geometry": {
        "type": "LineString",
        "coordinates": [
          [
            113.3157401,
            23.1221698
          ],
          [
            113.3157381,
            23.1221158
          ]
        ]
      },
      "properties": {
        "id": "w995559506",
        "bicycle": "no",
        "foot": "no",
        "highway": "secondary",
        "horse": "no",
        "name": "华夏路",
        "name:en": "Huaxia Road",
        "name:zh": "华夏路",
        "name:zh-Latn-pinyin": "huá xià lù",
        "oneway": "yes"
      }
    },
    {
      "type": "Feature",
      "geometry": {
        "type": "LineString",
        "coordinates": [
          [
            113.3157381,
            23.1221158
          ],
          [
            113.3156054,
            23.1221347
          ],
          [
            113.3155776,
            23.1221387
          ],
          [
            113.3153924,
            23.1221622
          ],
          [
            113.3152621,
            23.1221801
          ]
        ]
      },
      "properties": {
        "id": "w995559507",
        "bicycle": "no",
        "foot": "no",
        "highway": "primary",
        "horse": "no",
        "name": "花城大道",
        "name:en": "Huacheng Avenue",
        "name:zh": "花城大道",
        "oneway": "yes"
      }
    },
    {
      "type": "Feature",
      "geometry": {
        "type": "LineString",
        "coordinates": [
          [
            113.3157381,
            23.1221158
          ],
          [
            113.3157379,
            23.1219144
          ]
        ]
      },
      "properties": {
        "id": "w995559508",
        "bicycle": "no",
        "foot": "no",
        "highway": "secondary",
        "horse": "no",
        "name": "华夏路",
        "name:en": "Huaxia Road",
        "name:zh": "华夏路",
        "name:zh-Latn-pinyin": "huá xià lù",
        "oneway": "yes"
      }
    },
    {
      "type": "Feature",
      "geometry": {
        "type": "LineString",
        "coordinates": [
          [
            113.3158943,
            23.1221556
          ],
          [
            113.3158324,
            23.1221616
          ],
          [
            113.3157401,
            23.1221698
          ]
        ]
      },
      "properties": {
        "id": "w995559509",
        "bicycle": "no",
        "foot": "no",
        "highway": "secondary_link",
        "horse": "no",
        "oneway": "yes"
      }
    },
    {
      "type": "Feature",
      "geometry": {
        "type": "LineString",
        "coordinates": [
          [
            113.3158943,
            23.1221556
          ],
          [
            113.3158958,
            23.1222318
          ],
          [
            113.3159032,
            23.1226103
          ]
        ]
      },
      "properties": {
        "id": "w995559510",
        "bicycle": "no",
        "foot": "no",
        "highway": "secondary",
        "horse": "no",
        "name": "华夏路",
        "name:en": "Huaxia Road",
        "name:zh": "华夏路",
        "name:zh-Latn-pinyin": "huá xià lù",
        "oneway": "yes"
      }
    },
    {
      "type": "Feature",
      "geometry": {
        "type": "LineString",
        "coordinates": [
          [
            113.3158887,
            23.12191
          ],
          [
            113.3163731,
            23.1218956
          ]
        ]
      },
      "properties": {
        "id": "w995559511",
        "bicycle": "no",
        "foot": "no",
        "highway": "primary",
        "horse": "no",
        "lanes": "3",
        "name": "花城大道",
        "name:en": "Huacheng Avenue",
        "name:zh": "花城大道",
        "oneway": "yes"
      }
    },
    {
      "type": "Feature",
      "geometry": {
        "type": "LineString",
        "coordinates": [
          [
            113.3158887,
            23.12191
          ],
          [
            113.3158931,
            23.1220911
          ]
        ]
      },
      "properties": {
        "id": "w995559512",
        "bicycle": "no",
        "foot": "no",
        "highway": "secondary",
        "horse": "no",
        "name": "华夏路",
        "name:en": "Huaxia Road",
        "name:zh": "华夏路",
        "name:zh-Latn-pinyin": "huá xià lù",
        "oneway": "yes"
      }
    },
    {
      "type": "Feature",
      "geometry": {
        "type": "LineString",
        "coordinates": [
          [
            113.312526,
            23.1223931
          ],
          [
            113.3117401,
            23.1224353
          ],
          [
            113.3112929,
            23.1224593
          ],
          [
            113.3108065,
            23.1224855
          ]
        ]
      },
      "properties": {
        "id": "w1157862092",
        "highway": "primary",
        "name": "花城大道",
        "name:en": "Huacheng Avenue",
        "name:zh": "花城大道",
        "oneway": "yes"
      }
    },
    {
      "type": "Feature",
      "geometry": {
        "type": "LineString",
        "coordinates": [
          [
            113.3130099,
            23.1193369
          ],
          [
            113.3130099,
            23.1195653
          ],
          [
            113.3130099,
            23.1200027
          ],
          [
            113.3130101,
            23.1201751
          ],
          [
            113.3130103,
            23.1202896
          ],
          [
            113.3130109,
            23.1204303
          ],
          [
            113.3130122,
            23.1207618
          ],
          [
            113.3130181,
            23.121109
          ]
        ]
      },
      "properties": {
        "id": "w1272406239",
        "highway": "tertiary",
        "name": "华穗路",
        "name:en": "Huasui Road",
        "name:zh": "华穗路",
        "oneway": "yes",
        "oneway:bicycle": "no"
      }
    },
    {
      "type": "Feature",
      "geometry": {
        "type": "LineString",
        "coordinates": [
          [
            113.3179698,
            23.1221396
          ],
          [
            113.3182697,
            23.1220659
          ],
          [
            113.3191775,
            23.1219896
          ],
          [
            113.3202064,
            23.1219214
          ],
          [
            113.3203993,
            23.1219743
          ]
        ]
      },
      "properties": {
        "id": "w1373419750",
        "highway": "secondary",
        "layer": "-1",
        "name": "珠江东路",
        "oneway": "yes",
        "sidewalk": "no",
        "tunnel": "yes"
      }
    },
    {
      "type": "Feature",
      "geometry": {
        "type": "LineString",
        "coordinates": [
          [
            113.3176789,
            23.1225167
          ],
          [
            113.3177068,
            23.1224627
          ],
          [
            113.3177954,
            23.1222929
          ],
          [
            113.3179361,
            23.122149
          ],
          [
            113.3179698,
            23.1221396
          ]
        ]
      },
      "properties": {
        "id": "w1373419751",
        "highway": "secondary",
        "name": "珠江东路",
        "oneway": "yes"
      }
    },
    {
      "type": "Feature",
      "geometry": {
        "type": "LineString",
        "coordinates": [
          [
            113.317561,
            23.1242971
          ],
          [
            113.3174867,
            23.1242462
          ],
          [
            113.3174156,
            23.1241498
          ],
          [
            113.3173847,
            23.1240371
          ],
          [
            113.3173735,
            23.1237274
          ]
        ]
      },
      "properties": {
        "id": "w1374133789",
        "highway": "service",
        "service": "parking_aisle"
      }
    },
    {
      "type": "Feature",
      "geometry": {
        "type": "LineString",
        "coordinates": [
          [
            113.3175367,
            23.1236822
          ],
          [
            113.3176167,
            23.1236918
          ],
          [
            113.3176661,
            23.1236976
          ]
        ]
      },
      "properties": {
        "id": "w1374133799",
        "highway": "service",
        "oneway": "yes",
        "service": "parking_aisle"
      }
    },
    {
      "type": "Feature",
      "geometry": {
        "type": "LineString",
        "coordinates": [
          [
            113.3176661,
            23.1236976
          ],
          [
            113.3177753,
            23.1237106
          ]
        ]
      },
      "properties": {
        "id": "w1374133800",
        "highway": "service",
        "layer": "-1",
        "oneway": "yes",
        "service": "parking_aisle",
        "tunnel": "yes"
      }
    },
    {
      "type": "Feature",
      "geometry": {
        "type": "LineString",
        "coordinates": [
          [
            113.3178188,
            23.122489
          ],
          [
            113.3177068,
            23.1224627
          ]
        ]
      },
      "properties": {
        "id": "w1374133801",
        "highway": "service",
        "oneway": "yes",
        "service": "parking_aisle"
      }
    },
    {
      "type": "Feature",
      "geometry": {
        "type": "LineString",
        "coordinates": [
          [
            113.3179332,
            23.1225233
          ],
          [
            113.3178188,
            23.122489
          ]
        ]
      },
      "properties": {
        "id": "w1374133802",
        "highway": "service",
        "layer": "-1",
        "oneway": "yes",
        "service": "parking_aisle",
        "tunnel": "yes"
      }
    },
    {
      "type": "Feature",
      "geometry": {
        "type": "LineString",
        "coordinates": [
          [
            113.3180601,
            23.1211361
          ],
          [
            113.3180276,
            23.1210978
          ],
          [
            113.3178239,
            23.1208582
          ],
          [
            113.3179948,
            23.1206482
          ],
          [
            113.3181863,
            23.1206439
          ],
          [
            113.3182343,
            23.1206428
          ],
          [
            113.3182099,
            23.1208024
          ],
          [
            113.3181769,
            23.1209091
          ],
          [
            113.3181439,
            23.1209801
          ],
          [
            113.3180925,
            23.1210857
          ],
          [
            113.3180601,
            23.1211361
          ]
        ]
      },
      "properties": {
        "id": "w1374133809",
        "area": "yes",
        "highway": "pedestrian"
      }
    },
    {
      "type": "Feature",
      "geometry": {
        "type": "LineString",
        "coordinates": [
          [
            113.316691,
            23.1207621
          ],
          [
            113.3166922,
            23.1208192
          ],
          [
            113.3166967,
            23.1210456
          ]
        ]
      },
      "properties": {
        "id": "w1374133822",
        "highway": "service"
      }
    },
    {
      "type": "Feature",
      "geometry": {
        "type": "LineString",
        "coordinates": [
          [
            113.3131154,
            23.1231071
          ],
          [
            113.3131749,
            23.1231033
          ],
          [
            113.313239,
            23.1230992
          ]
        ]
      },
      "properties": {
        "id": "w1374671569",
        "highway": "service"
      }
    },
    {
      "type": "Feature",
      "geometry": {
        "type": "LineString",
        "coordinates": [
          [
            113.3143592,
            23.1222558
          ],
          [
            113.3143679,
            23.1223515
          ],
          [
            113.3144548,
            23.1235565
          ],
          [
            113.3144595,
            23.1236227
          ]
        ]
      },
      "properties": {
        "id": "w1374671575",
        "highway": "service"
      }
    },
    {
      "type": "Feature",
      "geometry": {
        "type": "LineString",
        "coordinates": [
          [
            113.3140203,
            23.1236586
          ],
          [
            113.3140149,
            23.1235904
          ],
          [
            113.3140034,
            23.1234437
          ]
        ]
      },
      "properties": {
        "id": "w1374671578",
        "highway": "service"
      }
    },
    {
      "type": "Feature",
      "geometry": {
        "type": "LineString",
        "coordinates": [
          [
            113.3138383,
            23.1236726
          ],
          [
            113.3138451,
            23.1237406
          ],
          [
            113.3138509,
            23.1237991
          ],
          [
            113.3138636,
            23.1239392
          ]
        ]
      },
      "properties": {
        "id": "w1374671579",
        "highway": "service"
      }
    },
    {
      "type": "Feature",
      "geometry": {
        "type": "LineString",
        "coordinates": [
          [
            113.3161466,
            23.1234553
          ],
          [
            113.3161426,
            23.1233811
          ],
          [
            113.31614,
            23.1233338
          ]
        ]
      },
      "properties": {
        "id": "w1374671589",
        "highway": "service"
      }
    },
    {
      "type": "Feature",
      "geometry": {
        "type": "LineString",
        "coordinates": [
          [
            113.3163749,
            23.1234378
          ],
          [
            113.3163708,
            23.1233644
          ],
          [
            113.3163666,
            23.1232884
          ]
        ]
      },
      "properties": {
        "id": "w1374671609",
        "highway": "service"
      }
    },
    {
      "type": "Feature",
      "geometry": {
        "type": "LineString",
        "coordinates": [
          [
            113.3164281,
            23.1234335
          ],
          [
            113.3164238,
            23.1233605
          ],
          [
            113.3164193,
            23.1232851
          ]
        ]
      },
      "properties": {
        "id": "w1374671610",
        "highway": "service",
        "oneway": "yes",
        "service": "parking_aisle"
      }
    },
    {
      "type": "Feature",
      "geometry": {
        "type": "LineString",
        "coordinates": [
          [
            113.3164193,
            23.1232851
          ],
          [
            113.3164248,
            23.1232654
          ],
          [
            113.316446,
            23.1232514
          ]
        ]
      },
      "properties": {
        "id": "w1374671611",
        "highway": "service",
        "layer": "-1",
        "oneway": "yes",
        "service": "parking_aisle",
        "tunnel": "yes"
      }
    },
    {
      "type": "Feature",
      "geometry": {
        "type": "LineString",
        "coordinates": [
          [
            113.3163666,
            23.1232884
          ],
          [
            113.3163758,
            23.1232606
          ],
          [
            113.3163974,
            23.1232367
          ],
          [
            113.3164189,
            23.1232261
          ]
        ]
      },
      "properties": {
        "id": "w1374671612",
        "highway": "service",
        "layer": "-1",
        "tunnel": "yes"
      }
    },
    {
      "type": "Feature",
      "geometry": {
        "type": "LineString",
        "coordinates": [
          [
            113.3172134,
            23.1232049
          ],
          [
            113.3172227,
            23.1232351
          ]
        ]
      },
      "properties": {
        "id": "w1445405483",
        "highway": "service",
        "oneway": "yes",
        "service": "driveway",
        "tunnel": "building_passage"
      }
    }
  ]
}